suburb,street_name,street_lower,suburb_lower
Abbotsford,Collins Bridge,collins bridge,abbotsford
Abbotsford,Studley Park Road,studley park road,abbotsford
Abbotsford,Walmer Street Bridge,walmer street bridge,abbotsford
Armadale,Adelaide Street,adelaide street,armadale
Armadale,Albany Road,albany road,armadale
Armadale,Alleyne Avenue,alleyne avenue,armadale
Armadale,Armadale Street,armadale street,armadale
Armadale,Ashleigh Road,ashleigh road,armadale
Armadale,Aubrey Street,aubrey street,armadale
Armadale,Auburn Grove,auburn grove,armadale
Armadale,Avalon Road,avalon road,armadale
Armadale,Avondale Road,avondale road,armadale
Armadale,Bailey Avenue,bailey avenue,armadale
Armadale,Baldwin Street,baldwin street,armadale
Armadale,Barkly Avenue,barkly avenue,armadale
Armadale,Barnato Grove,barnato grove,armadale
Armadale,Beatty Avenue,beatty avenue,armadale
Armadale,Bell Street,bell street,armadale
Armadale,Cambridge Street,cambridge street,armadale
Armadale,Carmyle Avenue,carmyle avenue,armadale
Armadale,Cheel Street,cheel street,armadale
Armadale,Clarendon Street,clarendon street,armadale
Armadale,Clendon Road,clendon road,armadale
Armadale,Coldblo Road,coldblo road,armadale
Armadale,Como Street,como street,armadale
Armadale,Dandenong Road,dandenong road,armadale
Armadale,Denbigh Road,denbigh road,armadale
Armadale,Denham Place,denham place,armadale
Armadale,Densham Road,densham road,armadale
Armadale,Derby Street,derby street,armadale
Armadale,Duncraig Avenue,duncraig avenue,armadale
Armadale,Edsall Street,edsall street,armadale
Armadale,Edward Place,edward place,armadale
Armadale,Egerton Road,egerton road,armadale
Armadale,Eileen Street,eileen street,armadale
Armadale,Elgin Avenue,elgin avenue,armadale
Armadale,Elm Grove,elm grove,armadale
Armadale,Embling Road,embling road,armadale
Armadale,Erskine Street,erskine street,armadale
Armadale,Evergreen Mews,evergreen mews,armadale
Armadale,Fetherston Street,fetherston street,armadale
Armadale,Flete Avenue,flete avenue,armadale
Armadale,Fulton Street,fulton street,armadale
Armadale,Garden Street,garden street,armadale
Armadale,Gladstone Avenue,gladstone avenue,armadale
Armadale,Glassford Street,glassford street,armadale
Armadale,Glenferrie Road,glenferrie road,armadale
Armadale,Gordon Grove,gordon grove,armadale
Armadale,Hampden Road,hampden road,armadale
Armadale,Haverbrack Avenue,haverbrack avenue,armadale
Armadale,Hawthorn Road,hawthorn road,armadale
Armadale,High Street,high street,armadale
Armadale,Hodge Lane,hodge lane,armadale
Armadale,Hopetoun Road,hopetoun road,armadale
Armadale,Horsburgh Grove,horsburgh grove,armadale
Armadale,Hume Street,hume street,armadale
Armadale,Huntingtower Road,huntingtower road,armadale
Armadale,Inverness Avenue,inverness avenue,armadale
Armadale,Karbarook Avenue,karbarook avenue,armadale
Armadale,Kelmscott Road,kelmscott road,armadale
Armadale,Kestle Lane,kestle lane,armadale
Armadale,Kings Arcade,kings arcade,armadale
Armadale,Kings Way,kings way,armadale
Armadale,Kooyong Road,kooyong road,armadale
Armadale,Lalbert Crescent,lalbert crescent,armadale
Armadale,Lambeth Avenue,lambeth avenue,armadale
Armadale,Larnook Street,larnook street,armadale
Armadale,Llaneast Street,llaneast street,armadale
Armadale,Maben Place,maben place,armadale
Armadale,Malvern Road,malvern road,armadale
Armadale,Mandeville Crescent,mandeville crescent,armadale
Armadale,Mercer Road,mercer road,armadale
Armadale,Mercer Way,mercer way,armadale
Armadale,Meryl Street,meryl street,armadale
Armadale,Mindanao Court,mindanao court,armadale
Armadale,Moorhouse Street,moorhouse street,armadale
Armadale,Morey Street,morey street,armadale
Armadale,Mount Pleasant Grove,mount pleasant grove,armadale
Armadale,Munro Street,munro street,armadale
Armadale,Murray Street,murray street,armadale
Armadale,Myamyn Street,myamyn street,armadale
Armadale,New Street,new street,armadale
Armadale,Northcote Road,northcote road,armadale
Armadale,Oates Lane,oates lane,armadale
Armadale,Orchard Street,orchard street,armadale
Armadale,Orrong Road,orrong road,armadale
Armadale,Osment Street,osment street,armadale
Armadale,Pelham Court,pelham court,armadale
Armadale,Periwinkle Place,periwinkle place,armadale
Armadale,Railway Avenue,railway avenue,armadale
Armadale,Redcourt Avenue,redcourt avenue,armadale
Armadale,Rose Street,rose street,armadale
Armadale,Royal Crescent,royal crescent,armadale
Armadale,Seymour Avenue,seymour avenue,armadale
Armadale,Sorrett Avenue,sorrett avenue,armadale
Armadale,St Georges Road,st georges road,armadale
Armadale,St James Road,st james road,armadale
Armadale,Stanhope Street,stanhope street,armadale
Armadale,Stuart Street,stuart street,armadale
Armadale,Sutherland Place,sutherland place,armadale
Armadale,Sutherland Road,sutherland road,armadale
Armadale,The Terrace,the terrace,armadale
Armadale,Tillotson Terrace,tillotson terrace,armadale
Armadale,Tinsley Lane,tinsley lane,armadale
Armadale,Tower Court,tower court,armadale
Armadale,Turner Street,turner street,armadale
Armadale,Union Street,union street,armadale
Armadale,Valentine Grove,valentine grove,armadale
Armadale,Valetta Street,valetta street,armadale
Armadale,Waldie Lane,waldie lane,armadale
Armadale,Watson Street,watson street,armadale
Armadale,Wattletree Road,wattletree road,armadale
Armadale,Webster Street,webster street,armadale
Armadale,West Street,west street,armadale
Armadale,William Street,william street,armadale
Armadale,Willis Street,willis street,armadale
Armadale,Winter Street,winter street,armadale
Armadale,Wynnstay Road,wynnstay road,armadale
Balwyn,AIF Street,aif street,balwyn
Balwyn,Abercrombie Street,abercrombie street,balwyn
Balwyn,Alandale Avenue,alandale avenue,balwyn
Balwyn,Angle Road,angle road,balwyn
Balwyn,Anniversary Trail,anniversary trail,balwyn
Balwyn,Austin Street,austin street,balwyn
Balwyn,Balwyn Road,balwyn road,balwyn
Balwyn,Banff Court,banff court,balwyn
Balwyn,Banool Road,banool road,balwyn
Balwyn,Barnsbury Court,barnsbury court,balwyn
Balwyn,Barnsbury Road,barnsbury road,balwyn
Balwyn,Beckett Street,beckett street,balwyn
Balwyn,Belgrove Avenue,belgrove avenue,balwyn
Balwyn,Belmont Avenue,belmont avenue,balwyn
Balwyn,Belmore Road,belmore road,balwyn
Balwyn,Bennett Street,bennett street,balwyn
Balwyn,Bernborough Avenue,bernborough avenue,balwyn
Balwyn,Bevan Street,bevan street,balwyn
Balwyn,Birdwood Street,birdwood street,balwyn
Balwyn,Birtles Court,birtles court,balwyn
Balwyn,Birtles Street,birtles street,balwyn
Balwyn,Boston Road,boston road,balwyn
Balwyn,Bowley Avenue,bowley avenue,balwyn
Balwyn,Brenbeal Street,brenbeal street,balwyn
Balwyn,Bruce Street,bruce street,balwyn
Balwyn,Buchanan Avenue,buchanan avenue,balwyn
Balwyn,Burke Road,burke road,balwyn
Balwyn,Burroughs Road,burroughs road,balwyn
Balwyn,Campbell Road,campbell road,balwyn
Balwyn,Canyon Street,canyon street,balwyn
Balwyn,Caravan Street,caravan street,balwyn
Balwyn,Carmel Court,carmel court,balwyn
Balwyn,Carrigal Street,carrigal street,balwyn
Balwyn,Carrington Street,carrington street,balwyn
Balwyn,Carronshore Close,carronshore close,balwyn
Balwyn,Chatfield Avenue,chatfield avenue,balwyn
Balwyn,Cherry Road,cherry road,balwyn
Balwyn,Clapham Street,clapham street,balwyn
Balwyn,Clayton Road,clayton road,balwyn
Balwyn,Collins Court,collins court,balwyn
Balwyn,Como Avenue,como avenue,balwyn
Balwyn,Connell Court,connell court,balwyn
Balwyn,Conway Crescent,conway crescent,balwyn
Balwyn,Corhampton Road,corhampton road,balwyn
Balwyn,Cremorne Street,cremorne street,balwyn
Balwyn,Crest Avenue,crest avenue,balwyn
Balwyn,Creswick Street,creswick street,balwyn
Balwyn,Crom Street,crom street,balwyn
Balwyn,Dale Street,dale street,balwyn
Balwyn,Dee Street,dee street,balwyn
Balwyn,Deepdene Place,deepdene place,balwyn
Balwyn,Deepdene Road,deepdene road,balwyn
Balwyn,Delfi Court,delfi court,balwyn
Balwyn,Dundee Street,dundee street,balwyn
Balwyn,Dunure Court,dunure court,balwyn
Balwyn,Edmond Street,edmond street,balwyn
Balwyn,Ellen Street,ellen street,balwyn
Balwyn,Elliott Avenue,elliott avenue,balwyn
Balwyn,Eton Court,eton court,balwyn
Balwyn,Evergreen Avenue,evergreen avenue,balwyn
Balwyn,Eyre Street,eyre street,balwyn
Balwyn,First Avenue,first avenue,balwyn
Balwyn,Fitzgerald Street,fitzgerald street,balwyn
Balwyn,Frederick Street,frederick street,balwyn
Balwyn,Freeman Street,freeman street,balwyn
Balwyn,Georgian Court,georgian court,balwyn
Balwyn,Glenluss Street,glenluss street,balwyn
Balwyn,Gordon Street,gordon street,balwyn
Balwyn,Grant Avenue,grant avenue,balwyn
Balwyn,Grey Street,grey street,balwyn
Balwyn,Greythorn Road,greythorn road,balwyn
Balwyn,Grosvenor Parade,grosvenor parade,balwyn
Balwyn,Haig Street,haig street,balwyn
Balwyn,Hamilton Street,hamilton street,balwyn
Balwyn,Hardwicke Street,hardwicke street,balwyn
Balwyn,Harp Road,harp road,balwyn
Balwyn,Head Street,head street,balwyn
Balwyn,Heather Street,heather street,balwyn
Balwyn,Hender Court,hender court,balwyn
Balwyn,Henley Street,henley street,balwyn
Balwyn,Henry Street,henry street,balwyn
Balwyn,Hertford Crescent,hertford crescent,balwyn
Balwyn,Highland Avenue,highland avenue,balwyn
Balwyn,Highton Grove,highton grove,balwyn
Balwyn,Hilary Court,hilary court,balwyn
Balwyn,Hilda Street,hilda street,balwyn
Balwyn,Hosken Street,hosken street,balwyn
Balwyn,Hughes Street,hughes street,balwyn
Balwyn,Hunt Street,hunt street,balwyn
Balwyn,Ian Street,ian street,balwyn
Balwyn,Iramoo Street,iramoo street,balwyn
Balwyn,Jacka Street,jacka street,balwyn
Balwyn,Jersey Street,jersey street,balwyn
Balwyn,John Street,john street,balwyn
Balwyn,Jurang Street,jurang street,balwyn
Balwyn,Kaarumba Grove,kaarumba grove,balwyn
Balwyn,Kaleno View,kaleno view,balwyn
Balwyn,Kalgurli Court,kalgurli court,balwyn
Balwyn,Kalimna Street,kalimna street,balwyn
Balwyn,Kelba Street,kelba street,balwyn
Balwyn,Kendari Avenue,kendari avenue,balwyn
Balwyn,Kenilworth Street,kenilworth street,balwyn
Balwyn,King Street,king street,balwyn
Balwyn,Kireep Road,kireep road,balwyn
Balwyn,Kitchener Street,kitchener street,balwyn
Balwyn,Knutsford Street,knutsford street,balwyn
Balwyn,Lawson Street,lawson street,balwyn
Balwyn,Leonard Street,leonard street,balwyn
Balwyn,Lexton Street,lexton street,balwyn
Balwyn,Liboria Street,liboria street,balwyn
Balwyn,Linckens Crescent,linckens crescent,balwyn
Balwyn,Loma Linda Grove,loma linda grove,balwyn
Balwyn,Lydia Court,lydia court,balwyn
Balwyn,Lynch Court,lynch court,balwyn
Balwyn,Macassar Street,macassar street,balwyn
Balwyn,Maitland Avenue,maitland avenue,balwyn
Balwyn,Maleela Avenue,maleela avenue,balwyn
Balwyn,Mangan Street,mangan street,balwyn
Balwyn,Marion Avenue,marion avenue,balwyn
Balwyn,Maritana Court,maritana court,balwyn
Balwyn,Marock Place,marock place,balwyn
Balwyn,Marong Grove,marong grove,balwyn
Balwyn,May Street,may street,balwyn
Balwyn,Meadow Grove,meadow grove,balwyn
Balwyn,Melba Court,melba court,balwyn
Balwyn,Metung Street,metung street,balwyn
Balwyn,Millah Road,millah road,balwyn
Balwyn,Monash Avenue,monash avenue,balwyn
Balwyn,Morris Street,morris street,balwyn
Balwyn,Myambert Avenue,myambert avenue,balwyn
Balwyn,Naroo Street,naroo street,balwyn
Balwyn,Narrak Road,narrak road,balwyn
Balwyn,Nicholson Street,nicholson street,balwyn
Balwyn,Norbert Street,norbert street,balwyn
Balwyn,Northcote Avenue,northcote avenue,balwyn
Balwyn,Nott Street,nott street,balwyn
Balwyn,Nungerner Street,nungerner street,balwyn
Balwyn,Oakdale Avenue,oakdale avenue,balwyn
Balwyn,Page Street,page street,balwyn
Balwyn,Paisley Street,paisley street,balwyn
Balwyn,Palm Grove,palm grove,balwyn
Balwyn,Palmer Avenue,palmer avenue,balwyn
Balwyn,Para Street,para street,balwyn
Balwyn,Parkdale Avenue,parkdale avenue,balwyn
Balwyn,Parkside Avenue,parkside avenue,balwyn
Balwyn,Parring Road,parring road,balwyn
Balwyn,Pelham Place,pelham place,balwyn
Balwyn,Pembroke Road,pembroke road,balwyn
Balwyn,Percy Street,percy street,balwyn
Balwyn,Peverill Street,peverill street,balwyn
Balwyn,Porter Road,porter road,balwyn
Balwyn,Power Street,power street,balwyn
Balwyn,Pretoria Street,pretoria street,balwyn
Balwyn,Prowse Avenue,prowse avenue,balwyn
Balwyn,Pryton Court,pryton court,balwyn
Balwyn,Raynes Street,raynes street,balwyn
Balwyn,Reid Street,reid street,balwyn
Balwyn,Reumah Court,reumah court,balwyn
Balwyn,Rochester Road,rochester road,balwyn
Balwyn,Rogerson Court,rogerson court,balwyn
Balwyn,Ropley Avenue,ropley avenue,balwyn
Balwyn,Ruby Street,ruby street,balwyn
Balwyn,Ruhbank Avenue,ruhbank avenue,balwyn
Balwyn,Salford Avenue,salford avenue,balwyn
Balwyn,Salisbury Street,salisbury street,balwyn
Balwyn,Sanctuary Close,sanctuary close,balwyn
Balwyn,Second Avenue,second avenue,balwyn
Balwyn,Sevenoaks Street,sevenoaks street,balwyn
Balwyn,Stroud Street,stroud street,balwyn
Balwyn,Talbot Avenue,talbot avenue,balwyn
Balwyn,Tedstone Crescent,tedstone crescent,balwyn
Balwyn,Terry Street,terry street,balwyn
Balwyn,Threadneedle Street,threadneedle street,balwyn
Balwyn,Tivey Parade,tivey parade,balwyn
Balwyn,Tonkin Avenue,tonkin avenue,balwyn
Balwyn,Union Road,union road,balwyn
Balwyn,Vauxhall Road,vauxhall road,balwyn
Balwyn,Walker Street,walker street,balwyn
Balwyn,Wallace Street,wallace street,balwyn
Balwyn,Walsh Street,walsh street,balwyn
Balwyn,Wanbrow Avenue,wanbrow avenue,balwyn
Balwyn,Weir Street,weir street,balwyn
Balwyn,Westminster Street,westminster street,balwyn
Balwyn,Weston Street,weston street,balwyn
Balwyn,Whitehorse Road,whitehorse road,balwyn
Balwyn,Wills Street,wills street,balwyn
Balwyn,Winmalee Road,winmalee road,balwyn
Balwyn,Wolseley Crescent,wolseley crescent,balwyn
Balwyn,Woods Street,woods street,balwyn
Balwyn,Wynette Avenue,wynette avenue,balwyn
Balwyn,Yandilla Street,yandilla street,balwyn
Balwyn,Yarrbat Avenue,yarrbat avenue,balwyn
Balwyn,Yerrin Street,yerrin street,balwyn
Balwyn,Yonga Road,yonga road,balwyn
Balwyn,Yongala Street,yongala street,balwyn
Balwyn North,Agnes Avenue,agnes avenue,balwyn north
Balwyn North,Ailsa Court,ailsa court,balwyn north
Balwyn North,Ajax Street,ajax street,balwyn north
Balwyn North,Albury Road,albury road,balwyn north
Balwyn North,Almond Street,almond street,balwyn north
Balwyn North,Alpha Street,alpha street,balwyn north
Balwyn North,Aquila Street,aquila street,balwyn north
Balwyn North,Arama Street,arama street,balwyn north
Balwyn North,Ardgour Street,ardgour street,balwyn north
Balwyn North,Ashby Court,ashby court,balwyn north
Balwyn North,Aylmer Street,aylmer street,balwyn north
Balwyn North,Balwyn Road,balwyn road,balwyn north
Balwyn North,Bellevue Road,bellevue road,balwyn north
Balwyn North,Belmore Road,belmore road,balwyn north
Balwyn North,Bernard Street,bernard street,balwyn north
Balwyn North,Bolinda Road,bolinda road,balwyn north
Balwyn North,Bon Vue Road,bon vue road,balwyn north
Balwyn North,Boorahman Street,boorahman street,balwyn north
Balwyn North,Buchanan Avenue,buchanan avenue,balwyn north
Balwyn North,Bulleen Road,bulleen road,balwyn north
Balwyn North,Bulleen Road Offramp,bulleen road offramp,balwyn north
Balwyn North,Bullen-Eastern In Ramp On,bullen-eastern in ramp on,balwyn north
Balwyn North,Burke Lane,burke lane,balwyn north
Balwyn North,Burke Road,burke road,balwyn north
Balwyn North,Burke Road Offramp,burke road offramp,balwyn north
Balwyn North,Burton Street,burton street,balwyn north
Balwyn North,Capella Street,capella street,balwyn north
Balwyn North,Carnell Place,carnell place,balwyn north
Balwyn North,Carrington Street,carrington street,balwyn north
Balwyn North,Carron Street,carron street,balwyn north
Balwyn North,Cascade Street,cascade street,balwyn north
Balwyn North,Cash Street,cash street,balwyn north
Balwyn North,Central Avenue,central avenue,balwyn north
Balwyn North,Centre Way,centre way,balwyn north
Balwyn North,Chelmsford Street,chelmsford street,balwyn north
Balwyn North,Cityview Road,cityview road,balwyn north
Balwyn North,Clive Court,clive court,balwyn north
Balwyn North,Cobham Street,cobham street,balwyn north
Balwyn North,Columba Street,columba street,balwyn north
Balwyn North,Corby Street,corby street,balwyn north
Balwyn North,Corhampton Road,corhampton road,balwyn north
Balwyn North,Corona Street,corona street,balwyn north
Balwyn North,Dale Court,dale court,balwyn north
Balwyn North,Dempster Avenue,dempster avenue,balwyn north
Balwyn North,Dight Avenue,dight avenue,balwyn north
Balwyn North,Don Street,don street,balwyn north
Balwyn North,Doncaster Road,doncaster road,balwyn north
Balwyn North,Dorado Avenue,dorado avenue,balwyn north
Balwyn North,Douglas Street,douglas street,balwyn north
Balwyn North,Duggan Street,duggan street,balwyn north
Balwyn North,Dumblane Street,dumblane street,balwyn north
Balwyn North,Dunstan Street,dunstan street,balwyn north
Balwyn North,Earls Court,earls court,balwyn north
Balwyn North,Eastern Busway,eastern busway,balwyn north
Balwyn North,Eastern Freeway,eastern freeway,balwyn north
Balwyn North,Eastern Freeway (Express),eastern freeway (express),balwyn north
Balwyn North,Eastern Freeway Onramp,eastern freeway onramp,balwyn north
Balwyn North,Eastern Freeway Temporary Onramp,eastern freeway temporary onramp,balwyn north
Balwyn North,Eastern Freeway Upgrade,eastern freeway upgrade,balwyn north
Balwyn North,Eastern In-Bullen Ramp Of,eastern in-bullen ramp of,balwyn north
Balwyn North,Echo Avenue,echo avenue,balwyn north
Balwyn North,Ellendale Street,ellendale street,balwyn north
Balwyn North,Ellsa Street,ellsa street,balwyn north
Balwyn North,Eurolie Street,eurolie street,balwyn north
Balwyn North,Fay Street,fay street,balwyn north
Balwyn North,Ferdinand Avenue,ferdinand avenue,balwyn north
Balwyn North,Fintonia Street,fintonia street,balwyn north
Balwyn North,Forbes Place,forbes place,balwyn north
Balwyn North,Fortuna Avenue,fortuna avenue,balwyn north
Balwyn North,Frank Street,frank street,balwyn north
Balwyn North,Gama Street,gama street,balwyn north
Balwyn North,Gardenia Road,gardenia road,balwyn north
Balwyn North,Gardner Court,gardner court,balwyn north
Balwyn North,Gildan Street,gildan street,balwyn north
Balwyn North,Glamis Court,glamis court,balwyn north
Balwyn North,Glenthorn Avenue,glenthorn avenue,balwyn north
Balwyn North,Gould Street,gould street,balwyn north
Balwyn North,Greythorn Road,greythorn road,balwyn north
Balwyn North,Grieve Street,grieve street,balwyn north
Balwyn North,Harrington Avenue,harrington avenue,balwyn north
Balwyn North,Hatfield Street,hatfield street,balwyn north
Balwyn North,Heather Street,heather street,balwyn north
Balwyn North,Helston Street,helston street,balwyn north
Balwyn North,Highbury Street,highbury street,balwyn north
Balwyn North,Highview Road,highview road,balwyn north
Balwyn North,Hill Road,hill road,balwyn north
Balwyn North,Hillview Road,hillview road,balwyn north
Balwyn North,Hood Street,hood street,balwyn north
Balwyn North,Hosken Street,hosken street,balwyn north
Balwyn North,Houghton Street,houghton street,balwyn north
Balwyn North,Hughes Street,hughes street,balwyn north
Balwyn North,Hunt Street,hunt street,balwyn north
Balwyn North,Illawarra Road,illawarra road,balwyn north
Balwyn North,Inverness Way,inverness way,balwyn north
Balwyn North,Jacka Street,jacka street,balwyn north
Balwyn North,Jaserfold Street,jaserfold street,balwyn north
Balwyn North,Jason Court,jason court,balwyn north
Balwyn North,Jolie Vue Road,jolie vue road,balwyn north
Balwyn North,Joy Street,joy street,balwyn north
Balwyn North,Joynt Street,joynt street,balwyn north
Balwyn North,June Avenue,june avenue,balwyn north
Balwyn North,Kalka Street,kalka street,balwyn north
Balwyn North,Kandi Lane,kandi lane,balwyn north
Balwyn North,Kawarren Street,kawarren street,balwyn north
Balwyn North,Kelba Street,kelba street,balwyn north
Balwyn North,Kelvinside Street,kelvinside street,balwyn north
Balwyn North,Kendari Avenue,kendari avenue,balwyn north
Balwyn North,Kenny Street,kenny street,balwyn north
Balwyn North,Keon Court,keon court,balwyn north
Balwyn North,Koonung Creek Trail,koonung creek trail,balwyn north
Balwyn North,Koonung Creek Trail Diversion,koonung creek trail diversion,balwyn north
Balwyn North,Koonung Street,koonung street,balwyn north
Balwyn North,Kosciusko Road,kosciusko road,balwyn north
Balwyn North,Kyora Parade,kyora parade,balwyn north
Balwyn North,Lansdown Street,lansdown street,balwyn north
Balwyn North,Larbert Avenue,larbert avenue,balwyn north
Balwyn North,Lawrence Street,lawrence street,balwyn north
Balwyn North,Lawson Street,lawson street,balwyn north
Balwyn North,Leonis Avenue,leonis avenue,balwyn north
Balwyn North,Lexton Street,lexton street,balwyn north
Balwyn North,Libra Street,libra street,balwyn north
Balwyn North,Lloyd Street,lloyd street,balwyn north
Balwyn North,Loma Linda Grove,loma linda grove,balwyn north
Balwyn North,Longview Road,longview road,balwyn north
Balwyn North,Lucifer Street,lucifer street,balwyn north
Balwyn North,Lynne Court,lynne court,balwyn north
Balwyn North,Macassar Street,macassar street,balwyn north
Balwyn North,Macedon Avenue,macedon avenue,balwyn north
Balwyn North,Madden Street,madden street,balwyn north
Balwyn North,Marwal Avenue,marwal avenue,balwyn north
Balwyn North,Maud Street,maud street,balwyn north
Balwyn North,Maughan Parade,maughan parade,balwyn north
Balwyn North,Maylands Avenue,maylands avenue,balwyn north
Balwyn North,McShane Street,mcshane street,balwyn north
Balwyn North,Midvale Avenue,midvale avenue,balwyn north
Balwyn North,Milfay Court,milfay court,balwyn north
Balwyn North,Millicent Avenue,millicent avenue,balwyn north
Balwyn North,Minerva Avenue,minerva avenue,balwyn north
Balwyn North,Moody Street,moody street,balwyn north
Balwyn North,Moreton Street,moreton street,balwyn north
Balwyn North,Morris Street,morris street,balwyn north
Balwyn North,Mount View Grove,mount view grove,balwyn north
Balwyn North,Mountain View Road,mountain view road,balwyn north
Balwyn North,Musca Street,musca street,balwyn north
Balwyn North,Nevada Street,nevada street,balwyn north
Balwyn North,Nicholson Street,nicholson street,balwyn north
Balwyn North,Nixon Street,nixon street,balwyn north
Balwyn North,North East Link,north east link,balwyn north
Balwyn North,Oravel Street,oravel street,balwyn north
Balwyn North,Orion Street,orion street,balwyn north
Balwyn North,Osburn Avenue,osburn avenue,balwyn north
Balwyn North,Oxford Street,oxford street,balwyn north
Balwyn North,Page Street,page street,balwyn north
Balwyn North,Panoramic Road,panoramic road,balwyn north
Balwyn North,Pavo Street,pavo street,balwyn north
Balwyn North,Penn Street,penn street,balwyn north
Balwyn North,Prose Street,prose street,balwyn north
Balwyn North,Rangeview Grove,rangeview grove,balwyn north
Balwyn North,Ray Drive,ray drive,balwyn north
Balwyn North,Reading Avenue,reading avenue,balwyn north
Balwyn North,Renown Street,renown street,balwyn north
Balwyn North,Riverside Avenue,riverside avenue,balwyn north
Balwyn North,Riverview Road,riverview road,balwyn north
Balwyn North,Robert Street,robert street,balwyn north
Balwyn North,Rookwood Street,rookwood street,balwyn north
Balwyn North,Rumpf Avenue,rumpf avenue,balwyn north
Balwyn North,Ruth Street,ruth street,balwyn north
Balwyn North,Sandra Street,sandra street,balwyn north
Balwyn North,Saturn Street,saturn street,balwyn north
Balwyn North,Seattle Street,seattle street,balwyn north
Balwyn North,Severn Street,severn street,balwyn north
Balwyn North,Singleton Road,singleton road,balwyn north
Balwyn North,Stephens Street,stephens street,balwyn north
Balwyn North,Stroma Avenue,stroma avenue,balwyn north
Balwyn North,Sunburst Avenue,sunburst avenue,balwyn north
Balwyn North,Sutton Street,sutton street,balwyn north
Balwyn North,Sylvan Street,sylvan street,balwyn north
Balwyn North,Sylvander Street,sylvander street,balwyn north
Balwyn North,Tannock Street,tannock street,balwyn north
Balwyn North,Taurus Street,taurus street,balwyn north
Balwyn North,Thackray Street,thackray street,balwyn north
Balwyn North,The Boulevard,the boulevard,balwyn north
Balwyn North,The Moor,the moor,balwyn north
Balwyn North,The Nook,the nook,balwyn north
Balwyn North,Thompsons Road,thompsons road,balwyn north
Balwyn North,Toorang Avenue,toorang avenue,balwyn north
Balwyn North,Tormey Street,tormey street,balwyn north
Balwyn North,Tovey Street,tovey street,balwyn north
Balwyn North,Tower Road,tower road,balwyn north
Balwyn North,Trentwood Avenue,trentwood avenue,balwyn north
Balwyn North,Tudor Court,tudor court,balwyn north
Balwyn North,Turnley Street,turnley street,balwyn north
Balwyn North,Tuxen Street,tuxen street,balwyn north
Balwyn North,Uplands Road,uplands road,balwyn north
Balwyn North,Ursa Street,ursa street,balwyn north
Balwyn North,Vega Street,vega street,balwyn north
Balwyn North,Ventnor Street,ventnor street,balwyn north
Balwyn North,Vicars Street,vicars street,balwyn north
Balwyn North,Viewhill Road,viewhill road,balwyn north
Balwyn North,Viewpoint Road,viewpoint road,balwyn north
Balwyn North,Walbundry Avenue,walbundry avenue,balwyn north
Balwyn North,Walnut Road,walnut road,balwyn north
Balwyn North,Wanbrow Avenue,wanbrow avenue,balwyn north
Balwyn North,Wandeen Street,wandeen street,balwyn north
Balwyn North,Wattle Avenue,wattle avenue,balwyn north
Balwyn North,Wilburton Parade,wilburton parade,balwyn north
Balwyn North,Wild Life Parade,wild life parade,balwyn north
Balwyn North,Willis Street,willis street,balwyn north
Balwyn North,Winfield Road,winfield road,balwyn north
Balwyn North,Woodville Street,woodville street,balwyn north
Balwyn North,Wynyard Crescent,wynyard crescent,balwyn north
Bulleen,Bulleen Road,bulleen road,bulleen
Bulleen,Bulleen Road Offramp,bulleen road offramp,bulleen
Bulleen,Eastern Busway,eastern busway,bulleen
Bulleen,Eastern Freeway,eastern freeway,bulleen
Bulleen,Eastern Freeway (Express),eastern freeway (express),bulleen
Bulleen,Eastern Freeway Onramp,eastern freeway onramp,bulleen
Bulleen,North East Link,north east link,bulleen
Bulleen,Thompsons Road,thompsons road,bulleen
Burwood (Vic.),Riversdale Road,riversdale road,burwood (vic.)
Camberwell,Acheron Avenue,acheron avenue,camberwell
Camberwell,Ada Street,ada street,camberwell
Camberwell,Aird Street,aird street,camberwell
Camberwell,Albert Street,albert street,camberwell
Camberwell,Allambee Avenue,allambee avenue,camberwell
Camberwell,Alma Road,alma road,camberwell
Camberwell,Amelia Street,amelia street,camberwell
Camberwell,Amy Street,amy street,camberwell
Camberwell,Anniversary Trail,anniversary trail,camberwell
Camberwell,Arlington Street,arlington street,camberwell
Camberwell,Aroha Crescent,aroha crescent,camberwell
Camberwell,Athelstan Road,athelstan road,camberwell
Camberwell,Auburn Parade,auburn parade,camberwell
Camberwell,Avenue Road,avenue road,camberwell
Camberwell,Avoca Street,avoca street,camberwell
Camberwell,Beech Street,beech street,camberwell
Camberwell,Bellett Street,bellett street,camberwell
Camberwell,Berwick Street,berwick street,camberwell
Camberwell,Bonville Court,bonville court,camberwell
Camberwell,Bow Crescent,bow crescent,camberwell
Camberwell,Bowen Street,bowen street,camberwell
Camberwell,Bright Street,bright street,camberwell
Camberwell,Bringa Avenue,bringa avenue,camberwell
Camberwell,Brinsley Road,brinsley road,camberwell
Camberwell,Broadway,broadway,camberwell
Camberwell,Brynmawr Road,brynmawr road,camberwell
Camberwell,Burke Road,burke road,camberwell
Camberwell,Burwood Avenue,burwood avenue,camberwell
Camberwell,Burwood Road,burwood road,camberwell
Camberwell,Butler Street,butler street,camberwell
Camberwell,Camberwell Road,camberwell road,camberwell
Camberwell,Canterbury Road,canterbury road,camberwell
Camberwell,Carinda Road,carinda road,camberwell
Camberwell,Carramar Avenue,carramar avenue,camberwell
Camberwell,Christowel Street,christowel street,camberwell
Camberwell,Cochran Avenue,cochran avenue,camberwell
Camberwell,Collings Street,collings street,camberwell
Camberwell,Compton Street,compton street,camberwell
Camberwell,Cookson Street,cookson street,camberwell
Camberwell,Cooloongatta Road,cooloongatta road,camberwell
Camberwell,Craig Avenue,craig avenue,camberwell
Camberwell,Crellin Grove,crellin grove,camberwell
Camberwell,Crescent Road,crescent road,camberwell
Camberwell,Crown Avenue,crown avenue,camberwell
Camberwell,Culliton Road,culliton road,camberwell
Camberwell,Currajong Avenue,currajong avenue,camberwell
Camberwell,Davis Avenue,davis avenue,camberwell
Camberwell,Derby Street,derby street,camberwell
Camberwell,Dominic Street,dominic street,camberwell
Camberwell,Donna Buang Street,donna buang street,camberwell
Camberwell,Doonkuna Avenue,doonkuna avenue,camberwell
Camberwell,Durham Road,durham road,camberwell
Camberwell,Eddy Street,eddy street,camberwell
Camberwell,Edward Street,edward street,camberwell
Camberwell,Elaroo Avenue,elaroo avenue,camberwell
Camberwell,Elphin Grove,elphin grove,camberwell
Camberwell,Essex Road,essex road,camberwell
Camberwell,Fairfield Avenue,fairfield avenue,camberwell
Camberwell,Fairholm Grove,fairholm grove,camberwell
Camberwell,Fairmont Avenue,fairmont avenue,camberwell
Camberwell,Fermanagh Road,fermanagh road,camberwell
Camberwell,Finsbury Way,finsbury way,camberwell
Camberwell,Fordham Avenue,fordham avenue,camberwell
Camberwell,Gascoyne Street,gascoyne street,camberwell
Camberwell,George Street,george street,camberwell
Camberwell,Georgina Parade,georgina parade,camberwell
Camberwell,Gilbert Parade,gilbert parade,camberwell
Camberwell,Glen Iris Road,glen iris road,camberwell
Camberwell,Glencairn Avenue,glencairn avenue,camberwell
Camberwell,Glyndon Road,glyndon road,camberwell
Camberwell,Gowar Avenue,gowar avenue,camberwell
Camberwell,Grace Street,grace street,camberwell
Camberwell,Graham Street,graham street,camberwell
Camberwell,Griffin Street,griffin street,camberwell
Camberwell,Griotte Street,griotte street,camberwell
Camberwell,Halley Avenue,halley avenue,camberwell
Camberwell,Hampton Grove,hampton grove,camberwell
Camberwell,Hartwell Hill Road,hartwell hill road,camberwell
Camberwell,Hassett Avenue,hassett avenue,camberwell
Camberwell,Hazel Street,hazel street,camberwell
Camberwell,High Road,high road,camberwell
Camberwell,Highfield Road,highfield road,camberwell
Camberwell,Hillside Parade,hillside parade,camberwell
Camberwell,Holly Street,holly street,camberwell
Camberwell,Holyrood Street,holyrood street,camberwell
Camberwell,Hope Street,hope street,camberwell
Camberwell,Hunter Road,hunter road,camberwell
Camberwell,Immarna Road,immarna road,camberwell
Camberwell,Inglesby Road,inglesby road,camberwell
Camberwell,Inkerman Road,inkerman road,camberwell
Camberwell,Judd Street,judd street,camberwell
Camberwell,Kalang Road,kalang road,camberwell
Camberwell,Kasouka Road,kasouka road,camberwell
Camberwell,Kerr Crescent,kerr crescent,camberwell
Camberwell,Killarra Avenue,killarra avenue,camberwell
Camberwell,King Street,king street,camberwell
Camberwell,Kingsley Street,kingsley street,camberwell
Camberwell,Kintore Street,kintore street,camberwell
Camberwell,Kirkwood Drive,kirkwood drive,camberwell
Camberwell,Lansell Crescent,lansell crescent,camberwell
Camberwell,Lenne Court,lenne court,camberwell
Camberwell,Loch Street,loch street,camberwell
Camberwell,Lockhart Street,lockhart street,camberwell
Camberwell,Lodge Road,lodge road,camberwell
Camberwell,Lofty Avenue,lofty avenue,camberwell
Camberwell,Lorne Grove,lorne grove,camberwell
Camberwell,Love Street,love street,camberwell
Camberwell,Lyric Grove,lyric grove,camberwell
Camberwell,Maple Crescent,maple crescent,camberwell
Camberwell,Marden Street,marden street,camberwell
Camberwell,Market Place,market place,camberwell
Camberwell,Marlborough Avenue,marlborough avenue,camberwell
Camberwell,Martin Road,martin road,camberwell
Camberwell,Matlock Street,matlock street,camberwell
Camberwell,Mayfield Avenue,mayfield avenue,camberwell
Camberwell,Mayston Street,mayston street,camberwell
Camberwell,Middle Road,middle road,camberwell
Camberwell,Middlesex Road,middlesex road,camberwell
Camberwell,Milverton Street,milverton street,camberwell
Camberwell,Moorhouse Street,moorhouse street,camberwell
Camberwell,Murdoch Street,murdoch street,camberwell
Camberwell,Myrtle Road,myrtle road,camberwell
Camberwell,Nelson Road,nelson road,camberwell
Camberwell,Nettleton Avenue,nettleton avenue,camberwell
Camberwell,Nevis Street,nevis street,camberwell
Camberwell,Orange Grove,orange grove,camberwell
Camberwell,Orrong Crescent,orrong crescent,camberwell
Camberwell,Palmerston Street,palmerston street,camberwell
Camberwell,Parlington Street,parlington street,camberwell
Camberwell,Peate Avenue,peate avenue,camberwell
Camberwell,Peppin Street,peppin street,camberwell
Camberwell,Pine Avenue,pine avenue,camberwell
Camberwell,Platform 1,platform 1,camberwell
Camberwell,Platform 2,platform 2,camberwell
Camberwell,Platform 3,platform 3,camberwell
Camberwell,Prospect Hill Road,prospect hill road,camberwell
Camberwell,Quantock Street,quantock street,camberwell
Camberwell,Queen Street,queen street,camberwell
Camberwell,Radnor Street,radnor street,camberwell
Camberwell,Railway Parade,railway parade,camberwell
Camberwell,Railway Walk,railway walk,camberwell
Camberwell,Range Street,range street,camberwell
Camberwell,Remon Avenue,remon avenue,camberwell
Camberwell,Reserve Road,reserve road,camberwell
Camberwell,Riversdale Road,riversdale road,camberwell
Camberwell,Rowell Avenue,rowell avenue,camberwell
Camberwell,Royal Crescent,royal crescent,camberwell
Camberwell,Rubens Grove,rubens grove,camberwell
Camberwell,Russell Street,russell street,camberwell
Camberwell,Sefton Place,sefton place,camberwell
Camberwell,Seville Street,seville street,camberwell
Camberwell,Seymour Grove,seymour grove,camberwell
Camberwell,Shalless Drive,shalless drive,camberwell
Camberwell,Short Street,short street,camberwell
Camberwell,Smith Road,smith road,camberwell
Camberwell,Spencer Road,spencer road,camberwell
Camberwell,Springfield Avenue,springfield avenue,camberwell
Camberwell,St Andries Street,st andries street,camberwell
Camberwell,St Johns Avenue,st johns avenue,camberwell
Camberwell,Stanhope Grove,stanhope grove,camberwell
Camberwell,Stanley Grove,stanley grove,camberwell
Camberwell,Station Street,station street,camberwell
Camberwell,Staughton Road,staughton road,camberwell
Camberwell,Stodart Street,stodart street,camberwell
Camberwell,Sunnyside Avenue,sunnyside avenue,camberwell
Camberwell,Tallis Close,tallis close,camberwell
Camberwell,The Grove,the grove,camberwell
Camberwell,The Ridge,the ridge,camberwell
Camberwell,Thorn Street,thorn street,camberwell
Camberwell,Toorak Road,toorak road,camberwell
Camberwell,Trafalgar Road,trafalgar road,camberwell
Camberwell,Trumper Street,trumper street,camberwell
Camberwell,Tyrone Street,tyrone street,camberwell
Camberwell,Union Road,union road,camberwell
Camberwell,Verdun Street,verdun street,camberwell
Camberwell,Victoria Road,victoria road,camberwell
Camberwell,Wanawong Crescent,wanawong crescent,camberwell
Camberwell,Wandin Road,wandin road,camberwell
Camberwell,Warburton Road,warburton road,camberwell
Camberwell,Water Street,water street,camberwell
Camberwell,Waterloo Street,waterloo street,camberwell
Camberwell,Wattle Valley Road,wattle valley road,camberwell
Camberwell,Wattle Valley Road Extension,wattle valley road extension,camberwell
Camberwell,Westbourne Grove,westbourne grove,camberwell
Camberwell,Willow Grove,willow grove,camberwell
Camberwell,Wilson Grove,wilson grove,camberwell
Camberwell,Wiringa Avenue,wiringa avenue,camberwell
Camberwell,Woodlands Avenue,woodlands avenue,camberwell
Caulfield - North,Dandenong Road,dandenong road,caulfield - north
Caulfield - North,Gladstone Avenue,gladstone avenue,caulfield - north
Caulfield - North,Glenferrie Road,glenferrie road,caulfield - north
Caulfield - North,Hawthorn Road,hawthorn road,caulfield - north
Caulfield - North,Kooyong Road,kooyong road,caulfield - north
Caulfield - North,Normanby Road,normanby road,caulfield - north
Caulfield - North,Orrong Road,orrong road,caulfield - north
Caulfield - North,Tooronga Road,tooronga road,caulfield - north
Caulfield - North,Wattletree Road,wattletree road,caulfield - north
Clifton Hill - Alphington,Chandler Highway,chandler highway,clifton hill - alphington
Clifton Hill - Alphington,Darebin Creek Trail,darebin creek trail,clifton hill - alphington
Clifton Hill - Alphington,Eastern Busway,eastern busway,clifton hill - alphington
Clifton Hill - Alphington,Eastern Freeway,eastern freeway,clifton hill - alphington
Clifton Hill - Alphington,Fairfield Pipe Bridge,fairfield pipe bridge,clifton hill - alphington
Clifton Hill - Alphington,Kane's Bridge,kane's bridge,clifton hill - alphington
Doncaster,Doncaster Road,doncaster road,doncaster
Doncaster,Eastern Freeway,eastern freeway,doncaster
Doncaster,Eastern Freeway (Express),eastern freeway (express),doncaster
Doncaster,Eastern Freeway Onramp,eastern freeway onramp,doncaster
Doncaster,Eastern Freeway Temporary Onramp,eastern freeway temporary onramp,doncaster
Glen Iris - East,Anniversary Trail,anniversary trail,glen iris - east
Glen Iris - East,Atkins Avenue,atkins avenue,glen iris - east
Glen Iris - East,Burke Road,burke road,glen iris - east
Glen Iris - East,Camberwell Road,camberwell road,glen iris - east
Glen Iris - East,Canterbury Place,canterbury place,glen iris - east
Glen Iris - East,Clifton Grove,clifton grove,glen iris - east
Glen Iris - East,Crescent Road,crescent road,glen iris - east
Glen Iris - East,Dickens Street,dickens street,glen iris - east
Glen Iris - East,Eddy Street,eddy street,glen iris - east
Glen Iris - East,Gardiners Creek Trail,gardiners creek trail,glen iris - east
Glen Iris - East,George Street,george street,glen iris - east
Glen Iris - East,Glen Iris Road,glen iris road,glen iris - east
Glen Iris - East,Glencairn Avenue,glencairn avenue,glen iris - east
Glen Iris - East,Grosvenor Road,grosvenor road,glen iris - east
Glen Iris - East,High Road,high road,glen iris - east
Glen Iris - East,Highfield Road,highfield road,glen iris - east
Glen Iris - East,Hillside Parade,hillside parade,glen iris - east
Glen Iris - East,Hugh Street,hugh street,glen iris - east
Glen Iris - East,Iris Road,iris road,glen iris - east
Glen Iris - East,Lawson Street,lawson street,glen iris - east
Glen Iris - East,Lithgow Street,lithgow street,glen iris - east
Glen Iris - East,Maraquita Grove,maraquita grove,glen iris - east
Glen Iris - East,Martin Road,martin road,glen iris - east
Glen Iris - East,Park Road,park road,glen iris - east
Glen Iris - East,Parkin Street,parkin street,glen iris - east
Glen Iris - East,Peate Avenue,peate avenue,glen iris - east
Glen Iris - East,Ruskin Road,ruskin road,glen iris - east
Glen Iris - East,Somerset Road,somerset road,glen iris - east
Glen Iris - East,Staughton Road,staughton road,glen iris - east
Glen Iris - East,Summerhill Road,summerhill road,glen iris - east
Glen Iris - East,Toorak Road,toorak road,glen iris - east
Glen Iris - East,Tooronga Road,tooronga road,glen iris - east
Glen Iris - East,Trent Street,trent street,glen iris - east
Glen Iris - East,Wattle Valley Road Extension,wattle valley road extension,glen iris - east
Glen Iris - East,Webb Street,webb street,glen iris - east
Hawthorn - North,Alfred Street,alfred street,hawthorn - north
Hawthorn - North,Allen Street,allen street,hawthorn - north
Hawthorn - North,Auburn Road,auburn road,hawthorn - north
Hawthorn - North,Barkers Road,barkers road,hawthorn - north
Hawthorn - North,Barton Street,barton street,hawthorn - north
Hawthorn - North,Bell Street,bell street,hawthorn - north
Hawthorn - North,Bowen Street,bowen street,hawthorn - north
Hawthorn - North,Bridge Road,bridge road,hawthorn - north
Hawthorn - North,Brook Street,brook street,hawthorn - north
Hawthorn - North,Burwood Road,burwood road,hawthorn - north
Hawthorn - North,Calvin Street,calvin street,hawthorn - north
Hawthorn - North,Carrington Street,carrington street,hawthorn - north
Hawthorn - North,Charles Street,charles street,hawthorn - north
Hawthorn - North,Chrystobel Crescent,chrystobel crescent,hawthorn - north
Hawthorn - North,Church Street,church street,hawthorn - north
Hawthorn - North,Churchill Grove,churchill grove,hawthorn - north
Hawthorn - North,Clovelly Court,clovelly court,hawthorn - north
Hawthorn - North,College Parade,college parade,hawthorn - north
Hawthorn - North,College Street,college street,hawthorn - north
Hawthorn - North,Columbia Street,columbia street,hawthorn - north
Hawthorn - North,Colvin Grove,colvin grove,hawthorn - north
Hawthorn - North,Connell Street,connell street,hawthorn - north
Hawthorn - North,Coppin Grove,coppin grove,hawthorn - north
Hawthorn - North,Corsewall Close,corsewall close,hawthorn - north
Hawthorn - North,Creswick Street,creswick street,hawthorn - north
Hawthorn - North,Denham Street,denham street,hawthorn - north
Hawthorn - North,Denmark Street,denmark street,hawthorn - north
Hawthorn - North,Domville Avenue,domville avenue,hawthorn - north
Hawthorn - North,Don Arcade,don arcade,hawthorn - north
Hawthorn - North,Edgerton Street,edgerton street,hawthorn - north
Hawthorn - North,Edgevale Road,edgevale road,hawthorn - north
Hawthorn - North,Edward Street,edward street,hawthorn - north
Hawthorn - North,Elgin Street,elgin street,hawthorn - north
Hawthorn - North,Elm Street,elm street,hawthorn - north
Hawthorn - North,Elphin Grove,elphin grove,hawthorn - north
Hawthorn - North,Eric Street,eric street,hawthorn - north
Hawthorn - North,Falmouth Street,falmouth street,hawthorn - north
Hawthorn - North,Fashoda Street,fashoda street,hawthorn - north
Hawthorn - North,Findon Crescent,findon crescent,hawthorn - north
Hawthorn - North,Findon Street,findon street,hawthorn - north
Hawthorn - North,Foley Street,foley street,hawthorn - north
Hawthorn - North,Frederick Street,frederick street,hawthorn - north
Hawthorn - North,Glenferrie Road,glenferrie road,hawthorn - north
Hawthorn - North,Grace Street,grace street,hawthorn - north
Hawthorn - North,Grattan Street,grattan street,hawthorn - north
Hawthorn - North,Grove Road,grove road,hawthorn - north
Hawthorn - North,Haines Street,haines street,hawthorn - north
Hawthorn - North,Harrison Crescent,harrison crescent,hawthorn - north
Hawthorn - North,Hawthorn Grove,hawthorn grove,hawthorn - north
Hawthorn - North,Hawthorn-Kew Rail Trail,hawthorn-kew rail trail,hawthorn - north
Hawthorn - North,Henry Street,henry street,hawthorn - north
Hawthorn - North,High Street South,high street south,hawthorn - north
Hawthorn - North,Hilda Crescent,hilda crescent,hawthorn - north
Hawthorn - North,Hill Street,hill street,hawthorn - north
Hawthorn - North,Honour Avenue,honour avenue,hawthorn - north
Hawthorn - North,Hopman Lane,hopman lane,hawthorn - north
Hawthorn - North,Hull Street,hull street,hawthorn - north
Hawthorn - North,Isabella Grove,isabella grove,hawthorn - north
Hawthorn - North,John Street,john street,hawthorn - north
Hawthorn - North,Johnson Street,johnson street,hawthorn - north
Hawthorn - North,Kinkora Road,kinkora road,hawthorn - north
Hawthorn - North,Lawes Street,lawes street,hawthorn - north
Hawthorn - North,Lennox Street,lennox street,hawthorn - north
Hawthorn - North,Liddiard Street,liddiard street,hawthorn - north
Hawthorn - North,Linda Crescent,linda crescent,hawthorn - north
Hawthorn - North,Lion Street,lion street,hawthorn - north
Hawthorn - North,Little Church Street,little church street,hawthorn - north
Hawthorn - North,Lofts Avenue,lofts avenue,hawthorn - north
Hawthorn - North,Lyndhurst Crescent,lyndhurst crescent,hawthorn - north
Hawthorn - North,Malin Street,malin street,hawthorn - north
Hawthorn - North,Malmsbury Street,malmsbury street,hawthorn - north
Hawthorn - North,Mary Street,mary street,hawthorn - north
Hawthorn - North,Mason Street,mason street,hawthorn - north
Hawthorn - North,Measham Place,measham place,hawthorn - north
Hawthorn - North,Melville Street,melville street,hawthorn - north
Hawthorn - North,Moir Street,moir street,hawthorn - north
Hawthorn - North,Moore Street,moore street,hawthorn - north
Hawthorn - North,Muir Street,muir street,hawthorn - north
Hawthorn - North,Myrtle Street,myrtle street,hawthorn - north
Hawthorn - North,Oak Street,oak street,hawthorn - north
Hawthorn - North,Osborne Court,osborne court,hawthorn - north
Hawthorn - North,Palmer Place,palmer place,hawthorn - north
Hawthorn - North,Park Street,park street,hawthorn - north
Hawthorn - North,Percy Street,percy street,hawthorn - north
Hawthorn - North,Pine Street,pine street,hawthorn - north
Hawthorn - North,Power Street,power street,hawthorn - north
Hawthorn - North,Rae Street,rae street,hawthorn - north
Hawthorn - North,Randolph Street,randolph street,hawthorn - north
Hawthorn - North,Rathmines Road,rathmines road,hawthorn - north
Hawthorn - North,Rossfield Avenue,rossfield avenue,hawthorn - north
Hawthorn - North,Ruby Street,ruby street,hawthorn - north
Hawthorn - North,Salisbury Grove,salisbury grove,hawthorn - north
Hawthorn - North,Selbourne Street,selbourne street,hawthorn - north
Hawthorn - North,Sercombe Grove,sercombe grove,hawthorn - north
Hawthorn - North,Shakespeare Grove,shakespeare grove,hawthorn - north
Hawthorn - North,Simpson Place,simpson place,hawthorn - north
Hawthorn - North,Smart Street,smart street,hawthorn - north
Hawthorn - North,Spencer Street,spencer street,hawthorn - north
Hawthorn - North,Vicars Street,vicars street,hawthorn - north
Hawthorn - North,Victoria Street,victoria street,hawthorn - north
Hawthorn - North,View Street,view street,hawthorn - north
Hawthorn - North,Wakefield Street,wakefield street,hawthorn - north
Hawthorn - North,William Street,william street,hawthorn - north
Hawthorn - North,Wood Street,wood street,hawthorn - north
Hawthorn - North,Wright Street,wright street,hawthorn - north
Hawthorn - North,Wyuna Avenue,wyuna avenue,hawthorn - north
Hawthorn - North,Xavier Avenue,xavier avenue,hawthorn - north
Hawthorn - North,Yarra Street,yarra street,hawthorn - north
Hawthorn - North,York Street,york street,hawthorn - north
Hawthorn - South,Airedale Avenue,airedale avenue,hawthorn - south
Hawthorn - South,Ardene Court,ardene court,hawthorn - south
Hawthorn - South,Auburn Road,auburn road,hawthorn - south
Hawthorn - South,Austin Street,austin street,hawthorn - south
Hawthorn - South,Belgrave Street,belgrave street,hawthorn - south
Hawthorn - South,Berkeley Street,berkeley street,hawthorn - south
Hawthorn - South,Bills Street,bills street,hawthorn - south
Hawthorn - South,Burgess Street,burgess street,hawthorn - south
Hawthorn - South,Burton Avenue,burton avenue,hawthorn - south
Hawthorn - South,Burwood Road,burwood road,hawthorn - south
Hawthorn - South,Callantina Road,callantina road,hawthorn - south
Hawthorn - South,Camden Road,camden road,hawthorn - south
Hawthorn - South,Carson Crescent,carson crescent,hawthorn - south
Hawthorn - South,Cato Lane North,cato lane north,hawthorn - south
Hawthorn - South,Cato Lane South,cato lane south,hawthorn - south
Hawthorn - South,Cato Street,cato street,hawthorn - south
Hawthorn - South,CityLink,citylink,hawthorn - south
Hawthorn - South,Cook Street,cook street,hawthorn - south
Hawthorn - South,Crossakiel Court,crossakiel court,hawthorn - south
Hawthorn - South,Dalley Street,dalley street,hawthorn - south
Hawthorn - South,Dean Avenue,dean avenue,hawthorn - south
Hawthorn - South,Dixon Street,dixon street,hawthorn - south
Hawthorn - South,Drill Street,drill street,hawthorn - south
Hawthorn - South,Duffy Place,duffy place,hawthorn - south
Hawthorn - South,Edlington Street,edlington street,hawthorn - south
Hawthorn - South,Elgin Place,elgin place,hawthorn - south
Hawthorn - South,Elgin Street,elgin street,hawthorn - south
Hawthorn - South,Elizabeth Street,elizabeth street,hawthorn - south
Hawthorn - South,Elmie Street,elmie street,hawthorn - south
Hawthorn - South,Ercildoune Avenue,ercildoune avenue,hawthorn - south
Hawthorn - South,Evansdale Road,evansdale road,hawthorn - south
Hawthorn - South,Fairmount Road,fairmount road,hawthorn - south
Hawthorn - South,Fairview Street,fairview street,hawthorn - south
Hawthorn - South,Finchley Court,finchley court,hawthorn - south
Hawthorn - South,Fordholm Road,fordholm road,hawthorn - south
Hawthorn - South,Gardiner Road,gardiner road,hawthorn - south
Hawthorn - South,Gardiners Creek Trail,gardiners creek trail,hawthorn - south
Hawthorn - South,George Street,george street,hawthorn - south
Hawthorn - South,Gibney Street,gibney street,hawthorn - south
Hawthorn - South,Glan Avon Road,glan avon road,hawthorn - south
Hawthorn - South,Glen Street,glen street,hawthorn - south
Hawthorn - South,Glenferrie Place,glenferrie place,hawthorn - south
Hawthorn - South,Glenferrie Road,glenferrie road,hawthorn - south
Hawthorn - South,Glenroy Road,glenroy road,hawthorn - south
Hawthorn - South,Golding Street,golding street,hawthorn - south
Hawthorn - South,Goodall Street,goodall street,hawthorn - south
Hawthorn - South,Guest Street,guest street,hawthorn - south
Hawthorn - South,Hall Street,hall street,hawthorn - south
Hawthorn - South,Hambledon Road,hambledon road,hawthorn - south
Hawthorn - South,Harts Parade,harts parade,hawthorn - south
Hawthorn - South,Hawthorn Glen,hawthorn glen,hawthorn - south
Hawthorn - South,Heather Court,heather court,hawthorn - south
Hawthorn - South,Henrietta Street,henrietta street,hawthorn - south
Hawthorn - South,Henry Street,henry street,hawthorn - south
Hawthorn - South,Hepburn Street,hepburn street,hawthorn - south
Hawthorn - South,Hollingsworth Avenue,hollingsworth avenue,hawthorn - south
Hawthorn - South,Hunter Street,hunter street,hawthorn - south
Hawthorn - South,Illawarra Road,illawarra road,hawthorn - south
Hawthorn - South,Inverleith Street,inverleith street,hawthorn - south
Hawthorn - South,James Street,james street,hawthorn - south
Hawthorn - South,John Street,john street,hawthorn - south
Hawthorn - South,Kembla Street,kembla street,hawthorn - south
Hawthorn - South,Kent Lane,kent lane,hawthorn - south
Hawthorn - South,Kent Street,kent street,hawthorn - south
Hawthorn - South,Kenwood Lane,kenwood lane,hawthorn - south
Hawthorn - South,Kippen Drive,kippen drive,hawthorn - south
Hawthorn - South,Kooyongkoot Road,kooyongkoot road,hawthorn - south
Hawthorn - South,Launder Street,launder street,hawthorn - south
Hawthorn - South,Lavidge Street,lavidge street,hawthorn - south
Hawthorn - South,Lennox Street,lennox street,hawthorn - south
Hawthorn - South,Leslie Street,leslie street,hawthorn - south
Hawthorn - South,Lisson Grove,lisson grove,hawthorn - south
Hawthorn - South,Loch Rae Court,loch rae court,hawthorn - south
Hawthorn - South,Luton Lane,luton lane,hawthorn - south
Hawthorn - South,Lyall Street,lyall street,hawthorn - south
Hawthorn - South,Lynch Street,lynch street,hawthorn - south
Hawthorn - South,Majore Street,majore street,hawthorn - south
Hawthorn - South,Manchester Street,manchester street,hawthorn - south
Hawthorn - South,Manningtree Road,manningtree road,hawthorn - south
Hawthorn - South,Marian Street,marian street,hawthorn - south
Hawthorn - South,McLeod Lane,mcleod lane,hawthorn - south
Hawthorn - South,Minona Street,minona street,hawthorn - south
Hawthorn - South,Montague Street,montague street,hawthorn - south
Hawthorn - South,Morang Place,morang place,hawthorn - south
Hawthorn - South,Morang Road,morang road,hawthorn - south
Hawthorn - South,Morrison Street,morrison street,hawthorn - south
Hawthorn - South,Narveno Court,narveno court,hawthorn - south
Hawthorn - South,New Street,new street,hawthorn - south
Hawthorn - South,Nottingham Lane,nottingham lane,hawthorn - south
Hawthorn - South,Oxley Road,oxley road,hawthorn - south
Hawthorn - South,Paterson Street,paterson street,hawthorn - south
Hawthorn - South,Poplar Avenue,poplar avenue,hawthorn - south
Hawthorn - South,Power Avenue,power avenue,hawthorn - south
Hawthorn - South,Power Street,power street,hawthorn - south
Hawthorn - South,Queens Avenue,queens avenue,hawthorn - south
Hawthorn - South,Railway Place,railway place,hawthorn - south
Hawthorn - South,Reserve Road,reserve road,hawthorn - south
Hawthorn - South,Riversdale Court,riversdale court,hawthorn - south
Hawthorn - South,Riversdale Road,riversdale road,hawthorn - south
Hawthorn - South,Robinson Road,robinson road,hawthorn - south
Hawthorn - South,Roche Street,roche street,hawthorn - south
Hawthorn - South,Rosney Street,rosney street,hawthorn - south
Hawthorn - South,Rosslyn Street,rosslyn street,hawthorn - south
Hawthorn - South,Scotch Circuit,scotch circuit,hawthorn - south
Hawthorn - South,Scotsburn Street,scotsburn street,hawthorn - south
Hawthorn - South,Scott Street,scott street,hawthorn - south
Hawthorn - South,Serpells Lane,serpells lane,hawthorn - south
Hawthorn - South,South Street,south street,hawthorn - south
Hawthorn - South,St Columbs Street,st columbs street,hawthorn - south
Hawthorn - South,Summerlea Grove,summerlea grove,hawthorn - south
Hawthorn - South,Swinburne Avenue,swinburne avenue,hawthorn - south
Hawthorn - South,Swinburne Walk,swinburne walk,hawthorn - south
Hawthorn - South,The Boulevard,the boulevard,hawthorn - south
Hawthorn - South,Thomas Street,thomas street,hawthorn - south
Hawthorn - South,Through Street,through street,hawthorn - south
Hawthorn - South,Toorak Road,toorak road,hawthorn - south
Hawthorn - South,Tweed Street,tweed street,hawthorn - south
Hawthorn - South,Urquhart Street,urquhart street,hawthorn - south
Hawthorn - South,Violet Grove,violet grove,hawthorn - south
Hawthorn - South,Vivian Grove,vivian grove,hawthorn - south
Hawthorn - South,Wallen Road,wallen road,hawthorn - south
Hawthorn - South,Wattle Grove,wattle grove,hawthorn - south
Hawthorn - South,Wattle Road,wattle road,hawthorn - south
Hawthorn - South,Wellesley Road,wellesley road,hawthorn - south
Hawthorn - South,William Street,william street,hawthorn - south
Hawthorn - South,Wiseman Street,wiseman street,hawthorn - south
Hawthorn - South,Woodburn Road,woodburn road,hawthorn - south
Hawthorn - South,Yarra Grove,yarra grove,hawthorn - south
Hawthorn - South,Yarra Lane,yarra lane,hawthorn - south
Hawthorn - South,Yarra Street,yarra street,hawthorn - south
Hawthorn East,Aberdeen Street,aberdeen street,hawthorn east
Hawthorn East,Airedale Avenue,airedale avenue,hawthorn east
Hawthorn East,Albert Street,albert street,hawthorn east
Hawthorn East,Allen Street,allen street,hawthorn east
Hawthorn East,Allenby Road,allenby road,hawthorn east
Hawthorn East,Alma Road,alma road,hawthorn east
Hawthorn East,Anderson Road,anderson road,hawthorn east
Hawthorn East,Auburn Grove,auburn grove,hawthorn east
Hawthorn East,Auburn Parade,auburn parade,hawthorn east
Hawthorn East,Auburn Road,auburn road,hawthorn east
Hawthorn East,Avenue Victoria,avenue victoria,hawthorn east
Hawthorn East,Barkers Road,barkers road,hawthorn east
Hawthorn East,Bayview Avenue,bayview avenue,hawthorn east
Hawthorn East,Beaconsfield Road,beaconsfield road,hawthorn east
Hawthorn East,Benbow Court,benbow court,hawthorn east
Hawthorn East,Bethune Street,bethune street,hawthorn east
Hawthorn East,Bluff Street,bluff street,hawthorn east
Hawthorn East,Bonfield Avenue,bonfield avenue,hawthorn east
Hawthorn East,Bowler Street,bowler street,hawthorn east
Hawthorn East,Brookfield Court,brookfield court,hawthorn east
Hawthorn East,Broomfield Road,broomfield road,hawthorn east
Hawthorn East,Buley Street,buley street,hawthorn east
Hawthorn East,Burgess Street,burgess street,hawthorn east
Hawthorn East,Burke Avenue,burke avenue,hawthorn east
Hawthorn East,Burke Road,burke road,hawthorn east
Hawthorn East,Burwood Avenue,burwood avenue,hawthorn east
Hawthorn East,Burwood Road,burwood road,hawthorn east
Hawthorn East,Camberwell Grove,camberwell grove,hawthorn east
Hawthorn East,Camberwell Road,camberwell road,hawthorn east
Hawthorn East,Cambridge Street,cambridge street,hawthorn east
Hawthorn East,Campbell Grove,campbell grove,hawthorn east
Hawthorn East,Campbell Road,campbell road,hawthorn east
Hawthorn East,Campbell Road South,campbell road south,hawthorn east
Hawthorn East,Canterbury Place,canterbury place,hawthorn east
Hawthorn East,Canterbury Road,canterbury road,hawthorn east
Hawthorn East,Carlyle Street,carlyle street,hawthorn east
Hawthorn East,Carnarvon Street,carnarvon street,hawthorn east
Hawthorn East,Caroline Street,caroline street,hawthorn east
Hawthorn East,Carrington Avenue,carrington avenue,hawthorn east
Hawthorn East,Cato Lane North,cato lane north,hawthorn east
Hawthorn East,Cato Lane South,cato lane south,hawthorn east
Hawthorn East,Cato Street,cato street,hawthorn east
Hawthorn East,Clifton Grove,clifton grove,hawthorn east
Hawthorn East,Clifton Road,clifton road,hawthorn east
Hawthorn East,Clive Road,clive road,hawthorn east
Hawthorn East,Cochran Avenue,cochran avenue,hawthorn east
Hawthorn East,Cole Street,cole street,hawthorn east
Hawthorn East,Commerce Lane,commerce lane,hawthorn east
Hawthorn East,Condor Street,condor street,hawthorn east
Hawthorn East,Constance Street,constance street,hawthorn east
Hawthorn East,Council Street,council street,hawthorn east
Hawthorn East,Cowper Street,cowper street,hawthorn east
Hawthorn East,Crescent Road,crescent road,hawthorn east
Hawthorn East,Currajong Avenue,currajong avenue,hawthorn east
Hawthorn East,Currajong Road,currajong road,hawthorn east
Hawthorn East,Daniel Court,daniel court,hawthorn east
Hawthorn East,Daniell Place,daniell place,hawthorn east
Hawthorn East,Davis Avenue,davis avenue,hawthorn east
Hawthorn East,Deanlea Court,deanlea court,hawthorn east
Hawthorn East,Denmark Hill Road,denmark hill road,hawthorn east
Hawthorn East,Eastern Place,eastern place,hawthorn east
Hawthorn East,Edlington Street,edlington street,hawthorn east
Hawthorn East,Evans Place,evans place,hawthorn east
Hawthorn East,Fairfield Avenue,fairfield avenue,hawthorn east
Hawthorn East,Fairmount Road,fairmount road,hawthorn east
Hawthorn East,Fletcher Street,fletcher street,hawthorn east
Hawthorn East,Freeman Street,freeman street,hawthorn east
Hawthorn East,Garden Street,garden street,hawthorn east
Hawthorn East,Gardiners Creek Trail,gardiners creek trail,hawthorn east
Hawthorn East,Gillman Street,gillman street,hawthorn east
Hawthorn East,Gordon Street,gordon street,hawthorn east
Hawthorn East,Graham Place,graham place,hawthorn east
Hawthorn East,Grandview Grove,grandview grove,hawthorn east
Hawthorn East,Hall Street,hall street,hawthorn east
Hawthorn East,Hallcroft Place,hallcroft place,hawthorn east
Hawthorn East,Harcourt Street,harcourt street,hawthorn east
Hawthorn East,Harold Street,harold street,hawthorn east
Hawthorn East,Harts Parade,harts parade,hawthorn east
Hawthorn East,Hastings Road,hastings road,hawthorn east
Hawthorn East,Havelock Road,havelock road,hawthorn east
Hawthorn East,Heather Court,heather court,hawthorn east
Hawthorn East,Henham Street,henham street,hawthorn east
Hawthorn East,Higham Road,higham road,hawthorn east
Hawthorn East,Homebush Crescent,homebush crescent,hawthorn east
Hawthorn East,Hugh Street,hugh street,hawthorn east
Hawthorn East,Inglesby Road,inglesby road,hawthorn east
Hawthorn East,Inverleith Street,inverleith street,hawthorn east
Hawthorn East,Invermay Grove,invermay grove,hawthorn east
Hawthorn East,Irelands Lane,irelands lane,hawthorn east
Hawthorn East,Jaques Street,jaques street,hawthorn east
Hawthorn East,Kaikoura Avenue,kaikoura avenue,hawthorn east
Hawthorn East,Kemsley Court,kemsley court,hawthorn east
Hawthorn East,Kerr Crescent,kerr crescent,hawthorn east
Hawthorn East,Kildare Street,kildare street,hawthorn east
Hawthorn East,King Street,king street,hawthorn east
Hawthorn East,Kintore Street,kintore street,hawthorn east
Hawthorn East,Kippen Drive,kippen drive,hawthorn east
Hawthorn East,Kooyong Close,kooyong close,hawthorn east
Hawthorn East,Langham Place,langham place,hawthorn east
Hawthorn East,Laurel Court,laurel court,hawthorn east
Hawthorn East,Lawson Street,lawson street,hawthorn east
Hawthorn East,Leslie Street,leslie street,hawthorn east
Hawthorn East,Leura Grove,leura grove,hawthorn east
Hawthorn East,Liddiard Street,liddiard street,hawthorn east
Hawthorn East,Lilydale Grove,lilydale grove,hawthorn east
Hawthorn East,Lingwell Road,lingwell road,hawthorn east
Hawthorn East,Linton Court,linton court,hawthorn east
Hawthorn East,Loch Street,loch street,hawthorn east
Hawthorn East,Lorne Road,lorne road,hawthorn east
Hawthorn East,Lovell Street,lovell street,hawthorn east
Hawthorn East,Loxton Street,loxton street,hawthorn east
Hawthorn East,Lyndhurst Crescent,lyndhurst crescent,hawthorn east
Hawthorn East,Malmsbury Street,malmsbury street,hawthorn east
Hawthorn East,Maraquita Grove,maraquita grove,hawthorn east
Hawthorn East,Maurice Street,maurice street,hawthorn east
Hawthorn East,Mayston Street,mayston street,hawthorn east
Hawthorn East,Miami Street,miami street,hawthorn east
Hawthorn East,Middle Road,middle road,hawthorn east
Hawthorn East,Molesworth Street,molesworth street,hawthorn east
Hawthorn East,Monteath Avenue,monteath avenue,hawthorn east
Hawthorn East,Montrose Place,montrose place,hawthorn east
Hawthorn East,Montrose Street,montrose street,hawthorn east
Hawthorn East,Mount Ida Avenue,mount ida avenue,hawthorn east
Hawthorn East,Mowbray Street,mowbray street,hawthorn east
Hawthorn East,Munro Street,munro street,hawthorn east
Hawthorn East,Myrniong Grove,myrniong grove,hawthorn east
Hawthorn East,Neave Street,neave street,hawthorn east
Hawthorn East,Newburgh Place,newburgh place,hawthorn east
Hawthorn East,Newport Crescent,newport crescent,hawthorn east
Hawthorn East,Nicholson Street,nicholson street,hawthorn east
Hawthorn East,Oberon Avenue,oberon avenue,hawthorn east
Hawthorn East,Oxley Road,oxley road,hawthorn east
Hawthorn East,Pine Avenue,pine avenue,hawthorn east
Hawthorn East,Pleasant Road,pleasant road,hawthorn east
Hawthorn East,Porter Street,porter street,hawthorn east
Hawthorn East,Prospect Hill Road,prospect hill road,hawthorn east
Hawthorn East,Queens Avenue,queens avenue,hawthorn east
Hawthorn East,Rae Street,rae street,hawthorn east
Hawthorn East,Rathmines Grove,rathmines grove,hawthorn east
Hawthorn East,Rathmines Road,rathmines road,hawthorn east
Hawthorn East,Redfern Road,redfern road,hawthorn east
Hawthorn East,Reserve Road,reserve road,hawthorn east
Hawthorn East,Risson Lane,risson lane,hawthorn east
Hawthorn East,Riversdale Road,riversdale road,hawthorn east
Hawthorn East,Rose Street,rose street,hawthorn east
Hawthorn East,Roseberry Street,roseberry street,hawthorn east
Hawthorn East,Ross Street,ross street,hawthorn east
Hawthorn East,Rosslyn Street,rosslyn street,hawthorn east
Hawthorn East,Russell Street,russell street,hawthorn east
Hawthorn East,Russells Place,russells place,hawthorn east
Hawthorn East,Ryeburne Avenue,ryeburne avenue,hawthorn east
Hawthorn East,Sayce Lane,sayce lane,hawthorn east
Hawthorn East,Scott Street,scott street,hawthorn east
Hawthorn East,Selwood Street,selwood street,hawthorn east
Hawthorn East,Seymour Grove,seymour grove,hawthorn east
Hawthorn East,St Helens Road,st helens road,hawthorn east
Hawthorn East,Stanley Avenue,stanley avenue,hawthorn east
Hawthorn East,Stanley Place,stanley place,hawthorn east
Hawthorn East,Station Street,station street,hawthorn east
Hawthorn East,Stewart Street,stewart street,hawthorn east
Hawthorn East,Sunnyside Avenue,sunnyside avenue,hawthorn east
Hawthorn East,Symonds Street,symonds street,hawthorn east
Hawthorn East,Tara Street,tara street,hawthorn east
Hawthorn East,Temple Street,temple street,hawthorn east
Hawthorn East,Tiro Court,tiro court,hawthorn east
Hawthorn East,Toorak - Monash Out Ramp On,toorak - monash out ramp on,hawthorn east
Hawthorn East,Toorak Road,toorak road,hawthorn east
Hawthorn East,Toorak-Monash Out Ramp On,toorak-monash out ramp on,hawthorn east
Hawthorn East,Tooronga Road,tooronga road,hawthorn east
Hawthorn East,Torring Road,torring road,hawthorn east
Hawthorn East,Torrington Street,torrington street,hawthorn east
Hawthorn East,Tourello Avenue,tourello avenue,hawthorn east
Hawthorn East,Tower Place,tower place,hawthorn east
Hawthorn East,Urquhart Street,urquhart street,hawthorn east
Hawthorn East,Victoria Grove,victoria grove,hawthorn east
Hawthorn East,Victoria Road,victoria road,hawthorn east
Hawthorn East,View Street,view street,hawthorn east
Hawthorn East,Walsh Street,walsh street,hawthorn east
Hawthorn East,Westley Street,westley street,hawthorn east
Hawthorn East,Widford Street,widford street,hawthorn east
Hawthorn East,Wills Street,wills street,hawthorn east
Hawthorn East,Wiseman Street,wiseman street,hawthorn east
Hawthorn East,Wolseley Street,wolseley street,hawthorn east
Hawthorn East,Woodstock Street,woodstock street,hawthorn east
Ivanhoe,Main Yarra Trail,main yarra trail,ivanhoe
Kew - South,Abercrombie Street,abercrombie street,kew - south
Kew - South,Accent Street,accent street,kew - south
Kew - South,Adeney Avenue,adeney avenue,kew - south
Kew - South,Alfred Street,alfred street,kew - south
Kew - South,Annadale Street,annadale street,kew - south
Kew - South,Anniversary Outer Circle Trail,anniversary outer circle trail,kew - south
Kew - South,Anniversary Trail,anniversary trail,kew - south
Kew - South,Argyle Road,argyle road,kew - south
Kew - South,Atkins Street,atkins street,kew - south
Kew - South,Auburn Road,auburn road,kew - south
Kew - South,Balmoral Avenue,balmoral avenue,kew - south
Kew - South,Barenya Court,barenya court,kew - south
Kew - South,Barkers Road,barkers road,kew - south
Kew - South,Barrington Avenue,barrington avenue,kew - south
Kew - South,Basil Brush Grove,basil brush grove,kew - south
Kew - South,Belford Road,belford road,kew - south
Kew - South,Belmont Avenue,belmont avenue,kew - south
Kew - South,Bennett Parade,bennett parade,kew - south
Kew - South,Birrell Court,birrell court,kew - south
Kew - South,Blake Lane,blake lane,kew - south
Kew - South,Boorool Road,boorool road,kew - south
Kew - South,Bowyer Avenue,bowyer avenue,kew - south
Kew - South,Bradford Avenue,bradford avenue,kew - south
Kew - South,Bramley Court,bramley court,kew - south
Kew - South,Bright Street,bright street,kew - south
Kew - South,Brougham Street,brougham street,kew - south
Kew - South,Burke Road,burke road,kew - south
Kew - South,Burne Court,burne court,kew - south
Kew - South,Byron Street,byron street,kew - south
Kew - South,Campbell Street,campbell street,kew - south
Kew - South,Cecil Street,cecil street,kew - south
Kew - South,Charles Street,charles street,kew - south
Kew - South,Childers Street,childers street,kew - south
Kew - South,Civic Drive,civic drive,kew - south
Kew - South,Clevedon Court,clevedon court,kew - south
Kew - South,Cobden Street,cobden street,kew - south
Kew - South,Coleridge Street,coleridge street,kew - south
Kew - South,College Parade,college parade,kew - south
Kew - South,College Place,college place,kew - south
Kew - South,Corsewall Close,corsewall close,kew - south
Kew - South,Cotham Road,cotham road,kew - south
Kew - South,Council Crescent,council crescent,kew - south
Kew - South,Daniell Place,daniell place,kew - south
Kew - South,Daracombe Avenue,daracombe avenue,kew - south
Kew - South,Davis Street,davis street,kew - south
Kew - South,Dean Street,dean street,kew - south
Kew - South,Deepdene Place,deepdene place,kew - south
Kew - South,Denmark Street,denmark street,kew - south
Kew - South,Derby Place,derby place,kew - south
Kew - South,Derby Street,derby street,kew - south
Kew - South,Derrick Street,derrick street,kew - south
Kew - South,Disraeli Street,disraeli street,kew - south
Kew - South,Doona Avenue,doona avenue,kew - south
Kew - South,Downton Grove,downton grove,kew - south
Kew - South,Edgevale Road,edgevale road,kew - south
Kew - South,Edward Street,edward street,kew - south
Kew - South,Ermington Place,ermington place,kew - south
Kew - South,Evans Road,evans road,kew - south
Kew - South,Eyre Street,eyre street,kew - south
Kew - South,Fenton Avenue,fenton avenue,kew - south
Kew - South,Fenton Way,fenton way,kew - south
Kew - South,First Avenue,first avenue,kew - south
Kew - South,Fitzwilliam Street,fitzwilliam street,kew - south
Kew - South,Florence Avenue,florence avenue,kew - south
Kew - South,Foley Street,foley street,kew - south
Kew - South,Franks Grove,franks grove,kew - south
Kew - South,Gellibrand Street,gellibrand street,kew - south
Kew - South,Gladstone Street,gladstone street,kew - south
Kew - South,Glendene Avenue,glendene avenue,kew - south
Kew - South,Glenferrie Road,glenferrie road,kew - south
Kew - South,Goldthorns Avenue,goldthorns avenue,kew - south
Kew - South,Gordon Avenue,gordon avenue,kew - south
Kew - South,Gordon Street,gordon street,kew - south
Kew - South,Grange Road,grange road,kew - south
Kew - South,Griffiths Grove,griffiths grove,kew - south
Kew - South,Halfey Lane,halfey lane,kew - south
Kew - South,Hansen Street,hansen street,kew - south
Kew - South,Harp Road,harp road,kew - south
Kew - South,Hartington Street,hartington street,kew - south
Kew - South,Heather Grove,heather grove,kew - south
Kew - South,Henry Street,henry street,kew - south
Kew - South,High Street,high street,kew - south
Kew - South,High Street South,high street south,kew - south
Kew - South,Highbury Grove,highbury grove,kew - south
Kew - South,Hillcrest Avenue,hillcrest avenue,kew - south
Kew - South,Hummingbird Lane,hummingbird lane,kew - south
Kew - South,Hunter Street,hunter street,kew - south
Kew - South,John Street,john street,kew - south
Kew - South,Kemsley Court,kemsley court,kew - south
Kew - South,Kent Street,kent street,kew - south
Kew - South,Lady Brasseys Drive,lady brasseys drive,kew - south
Kew - South,Lady Lochs Drive,lady lochs drive,kew - south
Kew - South,Lalla Court,lalla court,kew - south
Kew - South,Lalla Street,lalla street,kew - south
Kew - South,Locksley Avenue,locksley avenue,kew - south
Kew - South,Lofts Avenue,lofts avenue,kew - south
Kew - South,Loxton Street,loxton street,kew - south
Kew - South,Lytton Street,lytton street,kew - south
Kew - South,Macartney Avenue,macartney avenue,kew - south
Kew - South,Macrobertsons Lane,macrobertsons lane,kew - south
Kew - South,Main Street,main street,kew - south
Kew - South,Maitland Avenue,maitland avenue,kew - south
Kew - South,Majella Court,majella court,kew - south
Kew - South,Malin Street,malin street,kew - south
Kew - South,Marshall Avenue,marshall avenue,kew - south
Kew - South,Mary Street,mary street,kew - south
Kew - South,Maurice Street,maurice street,kew - south
Kew - South,Mawson Street,mawson street,kew - south
Kew - South,Maxwell Street,maxwell street,kew - south
Kew - South,May Street,may street,kew - south
Kew - South,Miller Grove,miller grove,kew - south
Kew - South,Mont Albert Road,mont albert road,kew - south
Kew - South,Mont Victor Road,mont victor road,kew - south
Kew - South,Moonbria Avenue,moonbria avenue,kew - south
Kew - South,Mortimer Street,mortimer street,kew - south
Kew - South,Mount Street,mount street,kew - south
Kew - South,Mountain Grove,mountain grove,kew - south
Kew - South,Mountfield Street,mountfield street,kew - south
Kew - South,Myrtle Avenue,myrtle avenue,kew - south
Kew - South,Normanby Road,normanby road,kew - south
Kew - South,O'Shaughnessy Street,o'shaughnessy street,kew - south
Kew - South,Orford Avenue,orford avenue,kew - south
Kew - South,Owen Street,owen street,kew - south
Kew - South,Pakington Street,pakington street,kew - south
Kew - South,Park Lane,park lane,kew - south
Kew - South,Parkhill Drive,parkhill drive,kew - south
Kew - South,Parkhill Road,parkhill road,kew - south
Kew - South,Peel Street,peel street,kew - south
Kew - South,Perry Court,perry court,kew - south
Kew - South,Peverill Street,peverill street,kew - south
Kew - South,Pleasant Avenue,pleasant avenue,kew - south
Kew - South,Princess Street,princess street,kew - south
Kew - South,Puffing Billy Lane,puffing billy lane,kew - south
Kew - South,Queen Street,queen street,kew - south
Kew - South,Regency Grove,regency grove,kew - south
Kew - South,Ridgeway Avenue,ridgeway avenue,kew - south
Kew - South,Rimington Avenue,rimington avenue,kew - south
Kew - South,Ross Street,ross street,kew - south
Kew - South,Rossfield Avenue,rossfield avenue,kew - south
Kew - South,Rowland Street,rowland street,kew - south
Kew - South,Royston Court,royston court,kew - south
Kew - South,Sackville Street,sackville street,kew - south
Kew - South,Scott Street,scott street,kew - south
Kew - South,Second Avenue,second avenue,kew - south
Kew - South,Segtoune Street,segtoune street,kew - south
Kew - South,Selbourne Road,selbourne road,kew - south
Kew - South,Simpson Street,simpson street,kew - south
Kew - South,St Anthonys Place,st anthonys place,kew - south
Kew - South,St James Place,st james place,kew - south
Kew - South,St Johns Parade,st johns parade,kew - south
Kew - South,Stanley Street,stanley street,kew - south
Kew - South,Stansell Street,stansell street,kew - south
Kew - South,Station Street,station street,kew - south
Kew - South,Stevenson Street,stevenson street,kew - south
Kew - South,Stirling Street,stirling street,kew - south
Kew - South,Stoke Avenue,stoke avenue,kew - south
Kew - South,Stratford Avenue,stratford avenue,kew - south
Kew - South,The Pines,the pines,kew - south
Kew - South,Thomas Street,thomas street,kew - south
Kew - South,Tram Avenue,tram avenue,kew - south
Kew - South,Tregarron Avenue,tregarron avenue,kew - south
Kew - South,Union Street,union street,kew - south
Kew - South,Uvadale Grove,uvadale grove,kew - south
Kew - South,Valentine Avenue,valentine avenue,kew - south
Kew - South,Victor Avenue,victor avenue,kew - south
Kew - South,Violet Grove,violet grove,kew - south
Kew - South,Vista Avenue,vista avenue,kew - south
Kew - South,Walsh Street,walsh street,kew - south
Kew - South,Waverley Avenue,waverley avenue,kew - south
Kew - South,Weir Street,weir street,kew - south
Kew - South,Wellington Street,wellington street,kew - south
Kew - South,Whitehorse Road,whitehorse road,kew - south
Kew - South,Wimba Avenue,wimba avenue,kew - south
Kew - South,Windsor Street,windsor street,kew - south
Kew - South,Winton Street,winton street,kew - south
Kew - South,Wishart Street,wishart street,kew - south
Kew - South,Woodlands Avenue,woodlands avenue,kew - south
Kew - South,Wrixon Street,wrixon street,kew - south
Kew - West,A'Beckett Street,a'beckett street,kew - west
Kew - West,Allen Grove,allen grove,kew - west
Kew - West,Anniversary Outer Circle Trail,anniversary outer circle trail,kew - west
Kew - West,Anniversary Trail,anniversary trail,kew - west
Kew - West,Arbour Drive,arbour drive,kew - west
Kew - West,Asquith Street,asquith street,kew - west
Kew - West,Athenaeum Place,athenaeum place,kew - west
Kew - West,Banool Avenue,banool avenue,kew - west
Kew - West,Barnard Grove,barnard grove,kew - west
Kew - West,Barry Street,barry street,kew - west
Kew - West,Beatrice Street,beatrice street,kew - west
Kew - West,Belford Avenue,belford avenue,kew - west
Kew - West,Belford Road,belford road,kew - west
Kew - West,Bellbird Road,bellbird road,kew - west
Kew - West,Belvedere,belvedere,kew - west
Kew - West,Berkeley Court,berkeley court,kew - west
Kew - West,Blake Lane,blake lane,kew - west
Kew - West,Blythswood Court,blythswood court,kew - west
Kew - West,Boathouse Road,boathouse road,kew - west
Kew - West,Botanic Drive,botanic drive,kew - west
Kew - West,Boundary Road,boundary road,kew - west
Kew - West,Bowen Street,bowen street,kew - west
Kew - West,Brazier Grove,brazier grove,kew - west
Kew - West,Bright Street,bright street,kew - west
Kew - West,Brougham Street,brougham street,kew - west
Kew - West,Burnet Trail,burnet trail,kew - west
Kew - West,Cameron Court,cameron court,kew - west
Kew - West,Canopy Avenue,canopy avenue,kew - west
Kew - West,Carnsworth Avenue,carnsworth avenue,kew - west
Kew - West,Carson Street,carson street,kew - west
Kew - West,Chandler Highway,chandler highway,kew - west
Kew - West,Chandler Highway Offramp,chandler highway offramp,kew - west
Kew - West,Childers Street,childers street,kew - west
Kew - West,Churchill Street,churchill street,kew - west
Kew - West,Cobden Street,cobden street,kew - west
Kew - West,Collins Bridge,collins bridge,kew - west
Kew - West,Collins Street,collins street,kew - west
Kew - West,Coombs Avenue,coombs avenue,kew - west
Kew - West,Cradley Avenue,cradley avenue,kew - west
Kew - West,Cremin Close,cremin close,kew - west
Kew - West,Cypress Way,cypress way,kew - west
Kew - West,Denmark Street,denmark street,kew - west
Kew - West,Derby Place,derby place,kew - west
Kew - West,Derby Street,derby street,kew - west
Kew - West,Disraeli Street,disraeli street,kew - west
Kew - West,Duke Street,duke street,kew - west
Kew - West,Dunlop Avenue,dunlop avenue,kew - west
Kew - West,Eamon Court,eamon court,kew - west
Kew - West,Earl Street,earl street,kew - west
Kew - West,Eastern Busway,eastern busway,kew - west
Kew - West,Eastern Freeway,eastern freeway,kew - west
Kew - West,Eastern Freeway Onramp,eastern freeway onramp,kew - west
Kew - West,Edgecombe Street,edgecombe street,kew - west
Kew - West,Eglinton Street,eglinton street,kew - west
Kew - West,Ellesmore Court,ellesmore court,kew - west
Kew - West,Elphinstone Court,elphinstone court,kew - west
Kew - West,English Place,english place,kew - west
Kew - West,Ettricks Street,ettricks street,kew - west
Kew - West,Fairfield Pipe Bridge,fairfield pipe bridge,kew - west
Kew - West,Fellows Street,fellows street,kew - west
Kew - West,Fenwick Street,fenwick street,kew - west
Kew - West,Ferguson Street,ferguson street,kew - west
Kew - West,Fernhurst Grove,fernhurst grove,kew - west
Kew - West,Findon Crescent,findon crescent,kew - west
Kew - West,Finhaven Court,finhaven court,kew - west
Kew - West,Garden Terrace,garden terrace,kew - west
Kew - West,Gladstone Street,gladstone street,kew - west
Kew - West,Grace Court,grace court,kew - west
Kew - West,Grandview Terrace,grandview terrace,kew - west
Kew - West,Greer Place,greer place,kew - west
Kew - West,Guest Close,guest close,kew - west
Kew - West,Harp Road,harp road,kew - west
Kew - West,Hartington Street,hartington street,kew - west
Kew - West,Henry Street,henry street,kew - west
Kew - West,Henty Court,henty court,kew - west
Kew - West,High Street,high street,kew - west
Kew - West,High Street South,high street south,kew - west
Kew - West,Highfield Grove,highfield grove,kew - west
Kew - West,Hodgson Street,hodgson street,kew - west
Kew - West,Holly Drive,holly drive,kew - west
Kew - West,Holroyd Street,holroyd street,kew - west
Kew - West,Hope Court,hope court,kew - west
Kew - West,Howard Street,howard street,kew - west
Kew - West,Hume Street,hume street,kew - west
Kew - West,Hummingbird Lane,hummingbird lane,kew - west
Kew - West,Hutchinson Drive,hutchinson drive,kew - west
Kew - West,Hyton Crescent,hyton crescent,kew - west
Kew - West,James Avenue,james avenue,kew - west
Kew - West,Kane's Bridge,kane's bridge,kew - west
Kew - West,Kellett Grove,kellett grove,kew - west
Kew - West,Kevin Grove,kevin grove,kew - west
Kew - West,Kilby Road,kilby road,kew - west
Kew - West,Laver Street,laver street,kew - west
Kew - West,Linnaker Place,linnaker place,kew - west
Kew - West,Loch Street,loch street,kew - west
Kew - West,Lower Drive,lower drive,kew - west
Kew - West,Lower Drive North,lower drive north,kew - west
Kew - West,Mackie Court,mackie court,kew - west
Kew - West,Madden Grove,madden grove,kew - west
Kew - West,Main Drive,main drive,kew - west
Kew - West,Main Yarra Trail,main yarra trail,kew - west
Kew - West,Main Yarra Trail Capital City Trail,main yarra trail capital city trail,kew - west
Kew - West,Malmsbury Street,malmsbury street,kew - west
Kew - West,Marie Dalley Drive,marie dalley drive,kew - west
Kew - West,McAlpine Lane,mcalpine lane,kew - west
Kew - West,McEvoy Street,mcevoy street,kew - west
Kew - West,Merrion Grove,merrion grove,kew - west
Kew - West,Merrion Place,merrion place,kew - west
Kew - West,Milfay Avenue,milfay avenue,kew - west
Kew - West,Miller Grove,miller grove,kew - west
Kew - West,Molesworth Street,molesworth street,kew - west
Kew - West,Monterey Close,monterey close,kew - west
Kew - West,Moreton Close,moreton close,kew - west
Kew - West,Murphy Street,murphy street,kew - west
Kew - West,New Street,new street,kew - west
Kew - West,Newman-Morris Place,newman-morris place,kew - west
Kew - West,Nolan Avenue,nolan avenue,kew - west
Kew - West,O'Brien Court,o'brien court,kew - west
Kew - West,O'Shaughnessy Street,o'shaughnessy street,kew - west
Kew - West,Oak Close,oak close,kew - west
Kew - West,Pakington Street,pakington street,kew - west
Kew - West,Park Avenue,park avenue,kew - west
Kew - West,Park Crescent,park crescent,kew - west
Kew - West,Peel Street,peel street,kew - west
Kew - West,Princess Street,princess street,kew - west
Kew - West,Pump Track,pump track,kew - west
Kew - West,Raheen Drive,raheen drive,kew - west
Kew - West,Ravel Lane,ravel lane,kew - west
Kew - West,Raven Street,raven street,kew - west
Kew - West,Redmond Street,redmond street,kew - west
Kew - West,Reeves Court,reeves court,kew - west
Kew - West,River Retreat,river retreat,kew - west
Kew - West,Rochester Street,rochester street,kew - west
Kew - West,Rockingham Close,rockingham close,kew - west
Kew - West,Rockingham Street,rockingham street,kew - west
Kew - West,Sir William Street,sir william street,kew - west
Kew - West,Stainer Street,stainer street,kew - west
Kew - West,Stawell Street,stawell street,kew - west
Kew - West,Stevens Close,stevens close,kew - west
Kew - West,Stevenson Street,stevenson street,kew - west
Kew - West,Studley Avenue,studley avenue,kew - west
Kew - West,Studley Park Road,studley park road,kew - west
Kew - West,Swinton Avenue,swinton avenue,kew - west
Kew - West,Sylvan Court,sylvan court,kew - west
Kew - West,Tara Avenue,tara avenue,kew - west
Kew - West,Tennyson Street,tennyson street,kew - west
Kew - West,Thornton Street,thornton street,kew - west
Kew - West,Valerie Street,valerie street,kew - west
Kew - West,Vaughan Crescent,vaughan crescent,kew - west
Kew - West,View Point,view point,kew - west
Kew - West,Walmer Street,walmer street,kew - west
Kew - West,Walmer Street Bridge,walmer street bridge,kew - west
Kew - West,Walpole Street,walpole street,kew - west
Kew - West,Walton Street,walton street,kew - west
Kew - West,White Lodge Court,white lodge court,kew - west
Kew - West,Wills Street,wills street,kew - west
Kew - West,Willsmere Road,willsmere road,kew - west
Kew - West,Wiltshire Drive,wiltshire drive,kew - west
Kew - West,Windella Avenue,windella avenue,kew - west
Kew - West,Woodford Avenue,woodford avenue,kew - west
Kew - West,Yarra Boulevard,yarra boulevard,kew - west
Kew - West,Yarra Street,yarra street,kew - west
Kew - West,Yarravale Road,yarravale road,kew - west
Kew - West,Young Street,young street,kew - west
Kew - West,Younger Court,younger court,kew - west
Kew East,Anniversary Outer Circle Trail,anniversary outer circle trail,kew east
Kew East,Arden Court,arden court,kew east
Kew East,Asquith Street,asquith street,kew east
Kew East,Baker Avenue,baker avenue,kew east
Kew East,Barnard Grove,barnard grove,kew east
Kew East,Belford Road,belford road,kew east
Kew East,Bennett Parade,bennett parade,kew east
Kew East,Beresford Street,beresford street,kew east
Kew East,Birdwood Street,birdwood street,kew east
Kew East,Boorool Road,boorool road,kew east
Kew East,Burke Road,burke road,kew east
Kew East,Burke Road Offramp,burke road offramp,kew east
Kew East,Cadow Street,cadow street,kew east
Kew East,Carnegie Avenue,carnegie avenue,kew east
Kew East,Cascade Drive,cascade drive,kew east
Kew East,Clyde Street,clyde street,kew east
Kew East,Cole Avenue,cole avenue,kew east
Kew East,Coleman Avenue,coleman avenue,kew east
Kew East,Colve Avenue,colve avenue,kew east
Kew East,Connor Avenue,connor avenue,kew east
Kew East,Darebin Creek Trail,darebin creek trail,kew east
Kew East,Doncaster Road,doncaster road,kew east
Kew East,Earl Street,earl street,kew east
Kew East,Eastern Busway,eastern busway,kew east
Kew East,Eastern Freeway,eastern freeway,kew east
Kew East,Eastern Freeway Onramp,eastern freeway onramp,kew east
Kew East,Elgar Avenue,elgar avenue,kew east
Kew East,Elm Grove,elm grove,kew east
Kew East,Fairway Drive,fairway drive,kew east
Kew East,Frater Street,frater street,kew east
Kew East,Glass Creek Trail,glass creek trail,kew east
Kew East,Glass Street,glass street,kew east
Kew East,Grandview Terrace,grandview terrace,kew east
Kew East,Hale Street,hale street,kew east
Kew East,Hamilton Street,hamilton street,kew east
Kew East,Hartwood Street,hartwood street,kew east
Kew East,High Street,high street,kew east
Kew East,Inverness Drive,inverness drive,kew east
Kew East,Irymple Avenue,irymple avenue,kew east
Kew East,Kellett Grove,kellett grove,kew east
Kew East,Keystone Crescent,keystone crescent,kew east
Kew East,Kilby Road,kilby road,kew east
Kew East,Kingsley Grove,kingsley grove,kew east
Kew East,Kitchener Street,kitchener street,kew east
Kew East,Koonung Creek Trail,koonung creek trail,kew east
Kew East,Kyora Drive,kyora drive,kew east
Kew East,Lawrence Street,lawrence street,kew east
Kew East,Leason Street,leason street,kew east
Kew East,Lister Street,lister street,kew east
Kew East,Longstaff Street,longstaff street,kew east
Kew East,Main Yarra Trail,main yarra trail,kew east
Kew East,Mathers Avenue,mathers avenue,kew east
Kew East,Maud Street,maud street,kew east
Kew East,McConchie Avenue,mcconchie avenue,kew east
Kew East,McCubbin Street,mccubbin street,kew east
Kew East,Meldrum Street,meldrum street,kew east
Kew East,Minogue Street,minogue street,kew east
Kew East,Minto Street,minto street,kew east
Kew East,Moy Lane,moy lane,kew east
Kew East,Munro Street,munro street,kew east
Kew East,Namur Street,namur street,kew east
Kew East,Newbury Street,newbury street,kew east
Kew East,Normanby Road,normanby road,kew east
Kew East,Old Burke Road,old burke road,kew east
Kew East,Oswin Street,oswin street,kew east
Kew East,Oxford Street,oxford street,kew east
Kew East,Page Avenue,page avenue,kew east
Kew East,Paperclip Lane,paperclip lane,kew east
Kew East,Park Crescent,park crescent,kew east
Kew East,Ramsay Avenue,ramsay avenue,kew east
Kew East,Ratten Avenue,ratten avenue,kew east
Kew East,Riverside Drive,riverside drive,kew east
Kew East,Spruzen Avenue,spruzen avenue,kew east
Kew East,Station Street,station street,kew east
Kew East,Strathalbyn Street,strathalbyn street,kew east
Kew East,Strathwyn Place,strathwyn place,kew east
Kew East,Sutherland Avenue,sutherland avenue,kew east
Kew East,Tanner Avenue,tanner avenue,kew east
Kew East,Valerie Street,valerie street,kew east
Kew East,View Point,view point,kew east
Kew East,Violet Grove,violet grove,kew east
Kew East,Walbundry Drive,walbundry drive,kew east
Kew East,Wattle Road,wattle road,kew east
Kew East,Westbrook Street,westbrook street,kew east
Kew East,White Avenue,white avenue,kew east
Kew East,Willow Grove,willow grove,kew east
Kew East,Willsmere Road,willsmere road,kew east
Kew East,Willsmere Walkway,willsmere walkway,kew east
Kew East,Windella Avenue,windella avenue,kew east
Kew East,Woodlands Avenue,woodlands avenue,kew east
Kew East,Woolcock Avenue,woolcock avenue,kew east
Kew East,Wright Street,wright street,kew east
Malvern - Glen Iris,Acre Place,acre place,malvern - glen iris
Malvern - Glen Iris,Alice Street,alice street,malvern - glen iris
Malvern - Glen Iris,Arthur Street,arthur street,malvern - glen iris
Malvern - Glen Iris,Ascot Street,ascot street,malvern - glen iris
Malvern - Glen Iris,Ashley Grove,ashley grove,malvern - glen iris
Malvern - Glen Iris,Avenel Road,avenel road,malvern - glen iris
Malvern - Glen Iris,Banksia Way,banksia way,malvern - glen iris
Malvern - Glen Iris,Beamsley Street,beamsley street,malvern - glen iris
Malvern - Glen Iris,Beaven Avenue,beaven avenue,malvern - glen iris
Malvern - Glen Iris,Benson Avenue,benson avenue,malvern - glen iris
Malvern - Glen Iris,Bodley Lane,bodley lane,malvern - glen iris
Malvern - Glen Iris,Bonview Road,bonview road,malvern - glen iris
Malvern - Glen Iris,Bride Street,bride street,malvern - glen iris
Malvern - Glen Iris,Canberra Grove,canberra grove,malvern - glen iris
Malvern - Glen Iris,Carroll Crescent,carroll crescent,malvern - glen iris
Malvern - Glen Iris,Cawkwell Street,cawkwell street,malvern - glen iris
Malvern - Glen Iris,Chanak Street,chanak street,malvern - glen iris
Malvern - Glen Iris,Chandlers Road,chandlers road,malvern - glen iris
Malvern - Glen Iris,Chesterfield Avenue,chesterfield avenue,malvern - glen iris
Malvern - Glen Iris,Chilcote Avenue,chilcote avenue,malvern - glen iris
Malvern - Glen Iris,Childers Road,childers road,malvern - glen iris
Malvern - Glen Iris,CityLink,citylink,malvern - glen iris
Malvern - Glen Iris,CityLink Out - Toorak Ramp Of,citylink out - toorak ramp of,malvern - glen iris
Malvern - Glen Iris,CityLink Out-Toorak Ramp Of,citylink out-toorak ramp of,malvern - glen iris
Malvern - Glen Iris,Citylink Out - Toorak Ramp Of,citylink out - toorak ramp of,malvern - glen iris
Malvern - Glen Iris,Citylink Out-Toorak Ramp Of,citylink out-toorak ramp of,malvern - glen iris
Malvern - Glen Iris,Claremont Avenue,claremont avenue,malvern - glen iris
Malvern - Glen Iris,Como Street,como street,malvern - glen iris
Malvern - Glen Iris,Coonil Crescent,coonil crescent,malvern - glen iris
Malvern - Glen Iris,Coppin Street,coppin street,malvern - glen iris
Malvern - Glen Iris,Cressy Street,cressy street,malvern - glen iris
Malvern - Glen Iris,Cummins Grove,cummins grove,malvern - glen iris
Malvern - Glen Iris,Dalny Street,dalny street,malvern - glen iris
Malvern - Glen Iris,Dandenong Road,dandenong road,malvern - glen iris
Malvern - Glen Iris,Derril Avenue,derril avenue,malvern - glen iris
Malvern - Glen Iris,Dixon Street,dixon street,malvern - glen iris
Malvern - Glen Iris,Drysdale Street,drysdale street,malvern - glen iris
Malvern - Glen Iris,East Street,east street,malvern - glen iris
Malvern - Glen Iris,Ebbott Lane,ebbott lane,malvern - glen iris
Malvern - Glen Iris,Edsall Street,edsall street,malvern - glen iris
Malvern - Glen Iris,Elizabeth Street,elizabeth street,malvern - glen iris
Malvern - Glen Iris,Embling Road,embling road,malvern - glen iris
Malvern - Glen Iris,Ethel Street,ethel street,malvern - glen iris
Malvern - Glen Iris,Euston Street,euston street,malvern - glen iris
Malvern - Glen Iris,Eva Street,eva street,malvern - glen iris
Malvern - Glen Iris,Evandale Road,evandale road,malvern - glen iris
Malvern - Glen Iris,Ewart Street,ewart street,malvern - glen iris
Malvern - Glen Iris,Findon Street,findon street,malvern - glen iris
Malvern - Glen Iris,Finlayson Street,finlayson street,malvern - glen iris
Malvern - Glen Iris,Fraser Street,fraser street,malvern - glen iris
Malvern - Glen Iris,Frederick Street,frederick street,malvern - glen iris
Malvern - Glen Iris,Gaynor Court,gaynor court,malvern - glen iris
Malvern - Glen Iris,Glendearg Grove,glendearg grove,malvern - glen iris
Malvern - Glen Iris,Glenferrie Road,glenferrie road,malvern - glen iris
Malvern - Glen Iris,Glenview Avenue,glenview avenue,malvern - glen iris
Malvern - Glen Iris,Gordon Grove,gordon grove,malvern - glen iris
Malvern - Glen Iris,Grace Street,grace street,malvern - glen iris
Malvern - Glen Iris,Graves Lane,graves lane,malvern - glen iris
Malvern - Glen Iris,Hamilton Close,hamilton close,malvern - glen iris
Malvern - Glen Iris,Hamilton Road,hamilton road,malvern - glen iris
Malvern - Glen Iris,Harvey Street,harvey street,malvern - glen iris
Malvern - Glen Iris,Haverbrack Avenue,haverbrack avenue,malvern - glen iris
Malvern - Glen Iris,Henderson Avenue,henderson avenue,malvern - glen iris
Malvern - Glen Iris,High Street,high street,malvern - glen iris
Malvern - Glen Iris,Horace Street,horace street,malvern - glen iris
Malvern - Glen Iris,Hornsby Street,hornsby street,malvern - glen iris
Malvern - Glen Iris,Hunter Street,hunter street,malvern - glen iris
Malvern - Glen Iris,Irving Street,irving street,malvern - glen iris
Malvern - Glen Iris,Isabella Street,isabella street,malvern - glen iris
Malvern - Glen Iris,Johnstone Street,johnstone street,malvern - glen iris
Malvern - Glen Iris,Jordan Street,jordan street,malvern - glen iris
Malvern - Glen Iris,Kinnoull Lane,kinnoull lane,malvern - glen iris
Malvern - Glen Iris,Lara Street,lara street,malvern - glen iris
Malvern - Glen Iris,Lawnhill Road,lawnhill road,malvern - glen iris
Malvern - Glen Iris,Leicester Square,leicester square,malvern - glen iris
Malvern - Glen Iris,Leopold Street,leopold street,malvern - glen iris
Malvern - Glen Iris,Lysterville Avenue,lysterville avenue,malvern - glen iris
Malvern - Glen Iris,Malvern Road,malvern road,malvern - glen iris
Malvern - Glen Iris,Mary Street,mary street,malvern - glen iris
Malvern - Glen Iris,Mayfield Avenue,mayfield avenue,malvern - glen iris
Malvern - Glen Iris,Mayfield Lane,mayfield lane,malvern - glen iris
Malvern - Glen Iris,McArthur Street,mcarthur street,malvern - glen iris
Malvern - Glen Iris,McKinley Avenue,mckinley avenue,malvern - glen iris
Malvern - Glen Iris,Meredith Street,meredith street,malvern - glen iris
Malvern - Glen Iris,Mernda Road,mernda road,malvern - glen iris
Malvern - Glen Iris,Milton Parade,milton parade,malvern - glen iris
Malvern - Glen Iris,Monaro Close,monaro close,malvern - glen iris
Malvern - Glen Iris,Monaro Road,monaro road,malvern - glen iris
Malvern - Glen Iris,Monash Freeway,monash freeway,malvern - glen iris
Malvern - Glen Iris,Monash Freeway On Ramp,monash freeway on ramp,malvern - glen iris
Malvern - Glen Iris,Monash In - Toorak Ramp Of,monash in - toorak ramp of,malvern - glen iris
Malvern - Glen Iris,Monash In-Toorak Ramp Of,monash in-toorak ramp of,malvern - glen iris
Malvern - Glen Iris,Monomeath Avenue,monomeath avenue,malvern - glen iris
Malvern - Glen Iris,Moorakyne Avenue,moorakyne avenue,malvern - glen iris
Malvern - Glen Iris,Moralla Road,moralla road,malvern - glen iris
Malvern - Glen Iris,Mountview Road,mountview road,malvern - glen iris
Malvern - Glen Iris,Myamyn Street,myamyn street,malvern - glen iris
Malvern - Glen Iris,Nicholls Street,nicholls street,malvern - glen iris
Malvern - Glen Iris,Norfolk Place,norfolk place,malvern - glen iris
Malvern - Glen Iris,Norford Grove,norford grove,malvern - glen iris
Malvern - Glen Iris,Normanby Road,normanby road,malvern - glen iris
Malvern - Glen Iris,Northbrook Avenue,northbrook avenue,malvern - glen iris
Malvern - Glen Iris,Oxford Street,oxford street,malvern - glen iris
Malvern - Glen Iris,Park Street,park street,malvern - glen iris
Malvern - Glen Iris,Parkside Street,parkside street,malvern - glen iris
Malvern - Glen Iris,Parslow Street,parslow street,malvern - glen iris
Malvern - Glen Iris,Pine Grove,pine grove,malvern - glen iris
Malvern - Glen Iris,Plant Street,plant street,malvern - glen iris
Malvern - Glen Iris,Power Street,power street,malvern - glen iris
Malvern - Glen Iris,Pryor Place,pryor place,malvern - glen iris
Malvern - Glen Iris,Raleigh Street,raleigh street,malvern - glen iris
Malvern - Glen Iris,Ray Street,ray street,malvern - glen iris
Malvern - Glen Iris,Robinson Street,robinson street,malvern - glen iris
Malvern - Glen Iris,Rushmead Street,rushmead street,malvern - glen iris
Malvern - Glen Iris,Shaftesbury Avenue,shaftesbury avenue,malvern - glen iris
Malvern - Glen Iris,Silver Street,silver street,malvern - glen iris
Malvern - Glen Iris,Somers Avenue,somers avenue,malvern - glen iris
Malvern - Glen Iris,Sorrett Avenue,sorrett avenue,malvern - glen iris
Malvern - Glen Iris,Soudan Street,soudan street,malvern - glen iris
Malvern - Glen Iris,Spring Road,spring road,malvern - glen iris
Malvern - Glen Iris,St Martins Close,st martins close,malvern - glen iris
Malvern - Glen Iris,Stanhope Street,stanhope street,malvern - glen iris
Malvern - Glen Iris,Staniland Avenue,staniland avenue,malvern - glen iris
Malvern - Glen Iris,Station Street,station street,malvern - glen iris
Malvern - Glen Iris,Sutton Street,sutton street,malvern - glen iris
Malvern - Glen Iris,Talbot Crescent,talbot crescent,malvern - glen iris
Malvern - Glen Iris,Thanet Street,thanet street,malvern - glen iris
Malvern - Glen Iris,Toorak - CityLink In Ramp On,toorak - citylink in ramp on,malvern - glen iris
Malvern - Glen Iris,Toorak - Citylink In Ramp On,toorak - citylink in ramp on,malvern - glen iris
Malvern - Glen Iris,Toorak - Monash Out Ramp On,toorak - monash out ramp on,malvern - glen iris
Malvern - Glen Iris,Toorak Road,toorak road,malvern - glen iris
Malvern - Glen Iris,Toorak-CityLink In Ramp On,toorak-citylink in ramp on,malvern - glen iris
Malvern - Glen Iris,Toorak-Citylink In Ramp On,toorak-citylink in ramp on,malvern - glen iris
Malvern - Glen Iris,Toorak-Monash Out Ramp On,toorak-monash out ramp on,malvern - glen iris
Malvern - Glen Iris,Tooronga Road,tooronga road,malvern - glen iris
Malvern - Glen Iris,Valetta Street,valetta street,malvern - glen iris
Malvern - Glen Iris,Victoria Road North,victoria road north,malvern - glen iris
Malvern - Glen Iris,Victoria Road South,victoria road south,malvern - glen iris
Malvern - Glen Iris,Viva Street,viva street,malvern - glen iris
Malvern - Glen Iris,Walnut Street,walnut street,malvern - glen iris
Malvern - Glen Iris,Warner Street,warner street,malvern - glen iris
Malvern - Glen Iris,Warra Street,warra street,malvern - glen iris
Malvern - Glen Iris,Wattletree Road,wattletree road,malvern - glen iris
Malvern - Glen Iris,Weir Street,weir street,malvern - glen iris
Malvern - Glen Iris,Wheatland Road,wheatland road,malvern - glen iris
Malvern - Glen Iris,White Street,white street,malvern - glen iris
Malvern - Glen Iris,Wilks Avenue,wilks avenue,malvern - glen iris
Malvern - Glen Iris,Willis Street,willis street,malvern - glen iris
Malvern - Glen Iris,Willow Street,willow street,malvern - glen iris
Malvern - Glen Iris,Wilson Street,wilson street,malvern - glen iris
Malvern - Glen Iris,Winter Street,winter street,malvern - glen iris
Malvern - Glen Iris,Woodmason Street,woodmason street,malvern - glen iris
Malvern - Glen Iris,Young Street,young street,malvern - glen iris
Malvern East,Chanak Street,chanak street,malvern east
Malvern East,Coppin Street,coppin street,malvern east
Malvern East,Dandenong Road,dandenong road,malvern east
Malvern East,Findon Street,findon street,malvern east
Malvern East,Hunter Street,hunter street,malvern east
Malvern East,Tooronga Road,tooronga road,malvern east
Malvern East,Wattletree Road,wattletree road,malvern east
Prahran - Windsor,Aberdeen Road,aberdeen road,prahran - windsor
Prahran - Windsor,Airlie Avenue,airlie avenue,prahran - windsor
Prahran - Windsor,Arkle Street,arkle street,prahran - windsor
Prahran - Windsor,Banole Avenue,banole avenue,prahran - windsor
Prahran - Windsor,Bayview Street,bayview street,prahran - windsor
Prahran - Windsor,Bidey Street,bidey street,prahran - windsor
Prahran - Windsor,Bowen Street,bowen street,prahran - windsor
Prahran - Windsor,Canterbury Road,canterbury road,prahran - windsor
Prahran - Windsor,Chatsworth Road,chatsworth road,prahran - windsor
Prahran - Windsor,Cheater Lane,cheater lane,prahran - windsor
Prahran - Windsor,Chomley Street,chomley street,prahran - windsor
Prahran - Windsor,Closeburn Avenue,closeburn avenue,prahran - windsor
Prahran - Windsor,Cramond Lane,cramond lane,prahran - windsor
Prahran - Windsor,Craven Street,craven street,prahran - windsor
Prahran - Windsor,Culshaw Street,culshaw street,prahran - windsor
Prahran - Windsor,Dandenong Road,dandenong road,prahran - windsor
Prahran - Windsor,Ellesmere Road,ellesmere road,prahran - windsor
Prahran - Windsor,Errol Street,errol street,prahran - windsor
Prahran - Windsor,Evergreen Mews,evergreen mews,prahran - windsor
Prahran - Windsor,Florence Street,florence street,prahran - windsor
Prahran - Windsor,Fulton Street,fulton street,prahran - windsor
Prahran - Windsor,Gooch Street,gooch street,prahran - windsor
Prahran - Windsor,Grandview Grove,grandview grove,prahran - windsor
Prahran - Windsor,Harvey Street,harvey street,prahran - windsor
Prahran - Windsor,High Street,high street,prahran - windsor
Prahran - Windsor,Highbury Grove,highbury grove,prahran - windsor
Prahran - Windsor,Irene Place,irene place,prahran - windsor
Prahran - Windsor,Irving Avenue,irving avenue,prahran - windsor
Prahran - Windsor,Jessamine Avenue,jessamine avenue,prahran - windsor
Prahran - Windsor,Joyce Street,joyce street,prahran - windsor
Prahran - Windsor,Karbarook Avenue,karbarook avenue,prahran - windsor
Prahran - Windsor,Kelvin Court,kelvin court,prahran - windsor
Prahran - Windsor,Kelvin Grove,kelvin grove,prahran - windsor
Prahran - Windsor,Kenleigh Grove,kenleigh grove,prahran - windsor
Prahran - Windsor,Kent Lane,kent lane,prahran - windsor
Prahran - Windsor,Lalbert Crescent,lalbert crescent,prahran - windsor
Prahran - Windsor,Larnook Street,larnook street,prahran - windsor
Prahran - Windsor,Lexton Grove,lexton grove,prahran - windsor
Prahran - Windsor,Linden Court,linden court,prahran - windsor
Prahran - Windsor,Lorne Road,lorne road,prahran - windsor
Prahran - Windsor,Lumley Court,lumley court,prahran - windsor
Prahran - Windsor,Mackay Street,mackay street,prahran - windsor
Prahran - Windsor,Malvern Road,malvern road,prahran - windsor
Prahran - Windsor,Mark's Lane,mark's lane,prahran - windsor
Prahran - Windsor,Mathoura Road,mathoura road,prahran - windsor
Prahran - Windsor,McMicken Lane,mcmicken lane,prahran - windsor
Prahran - Windsor,Michie Mews,michie mews,prahran - windsor
Prahran - Windsor,Molesworth Street,molesworth street,prahran - windsor
Prahran - Windsor,Morgans Lane,morgans lane,prahran - windsor
Prahran - Windsor,Murray Street,murray street,prahran - windsor
Prahran - Windsor,Orrong Road,orrong road,prahran - windsor
Prahran - Windsor,Packington Place,packington place,prahran - windsor
Prahran - Windsor,Packington Street,packington street,prahran - windsor
Prahran - Windsor,Park Road,park road,prahran - windsor
Prahran - Windsor,Pickford Street,pickford street,prahran - windsor
Prahran - Windsor,Pohlman Lane,pohlman lane,prahran - windsor
Prahran - Windsor,Pridham Street,pridham street,prahran - windsor
Prahran - Windsor,Rae Court,rae court,prahran - windsor
Prahran - Windsor,Robinson Street,robinson street,prahran - windsor
Prahran - Windsor,Russell Street,russell street,prahran - windsor
Prahran - Windsor,Spring Street,spring street,prahran - windsor
Prahran - Windsor,St Johns Lane,st johns lane,prahran - windsor
Prahran - Windsor,Stawell Street,stawell street,prahran - windsor
Prahran - Windsor,Sydney Street,sydney street,prahran - windsor
Prahran - Windsor,Taylor Close,taylor close,prahran - windsor
Prahran - Windsor,Tillotson Terrace,tillotson terrace,prahran - windsor
Prahran - Windsor,Tinsley Lane,tinsley lane,prahran - windsor
Prahran - Windsor,Upton Place,upton place,prahran - windsor
Prahran - Windsor,Vail Street,vail street,prahran - windsor
Prahran - Windsor,Waldie Lane,waldie lane,prahran - windsor
Prahran - Windsor,Westbourne Street,westbourne street,prahran - windsor
Prahran - Windsor,Williams Road,williams road,prahran - windsor
Prahran - Windsor,Willis Street,willis street,prahran - windsor
Prahran - Windsor,Woodfull Street,woodfull street,prahran - windsor
Prahran - Windsor,Wrights Terrace,wrights terrace,prahran - windsor
Prahran - Windsor,Wynnstay Road,wynnstay road,prahran - windsor
Prahran - Windsor, Beckett Street, beckett street,prahran - windsor
Richmond - North,Victoria Street,victoria street,richmond - north
Richmond (South) - Cremorne,Bridge Road,bridge road,richmond (south) - cremorne
Richmond (South) - Cremorne,CityLink,citylink,richmond (south) - cremorne
Richmond (South) - Cremorne,Gardiners Creek Trail,gardiners creek trail,richmond (south) - cremorne
Richmond (South) - Cremorne,Wallen Road,wallen road,richmond (south) - cremorne
Royal Botanic Gardens Victoria,Main Yarra Trail,main yarra trail,royal botanic gardens victoria
South Yarra - North,Bruce Street,bruce street,south yarra - north
South Yarra - North,Landale Road,landale road,south yarra - north
South Yarra - North,Main Yarra Trail,main yarra trail,south yarra - north
South Yarra - North,Rathmines Street,rathmines street,south yarra - north
South Yarra - North,Washington Street,washington street,south yarra - north
South Yarra - South,Coolullah Avenue,coolullah avenue,south yarra - south
South Yarra - South,Evelina Road,evelina road,south yarra - south
South Yarra - South,Malvern Road,malvern road,south yarra - south
South Yarra - South,May Road,may road,south yarra - south
South Yarra - South,Motherwell Street,motherwell street,south yarra - south
South Yarra - South,Sams Way,sams way,south yarra - south
South Yarra - South,Toorak Road,toorak road,south yarra - south
South Yarra - South,Williams Road,williams road,south yarra - south
South Yarra - South,Woodside Crescent,woodside crescent,south yarra - south
Surrey Hills (East) - Mont Albert,Mathilde Road,mathilde road,surrey hills (east) - mont albert
Surrey Hills (East) - Mont Albert,Rawlings Street,rawlings street,surrey hills (east) - mont albert
Surrey Hills (East) - Mont Albert,Warrigal Road,warrigal road,surrey hills (east) - mont albert
Surrey Hills (West) - Canterbury,65 & 67 Wattle Valley Road,65 & 67 wattle valley road,surrey hills (west) - canterbury
Surrey Hills (West) - Canterbury,67 Wattle Valley Road,67 wattle valley road,surrey hills (west) - canterbury
Surrey Hills (West) - Canterbury,Alastair Court,alastair court,surrey hills (west) - canterbury
Surrey Hills (West) - Canterbury,Albert Street,albert street,surrey hills (west) - canterbury
Surrey Hills (West) - Canterbury,Albion Street,albion street,surrey hills (west) - canterbury
Surrey Hills (West) - Canterbury,Alexandra Avenue,alexandra avenue,surrey hills (west) - canterbury
Surrey Hills (West) - Canterbury,Allenby Road,allenby road,surrey hills (west) - canterbury
Surrey Hills (West) - Canterbury,Allie Street,allie street,surrey hills (west) - canterbury
Surrey Hills (West) - Canterbury,Alta Street,alta street,surrey hills (west) - canterbury
Surrey Hills (West) - Canterbury,Amiens Street,amiens street,surrey hills (west) - canterbury
Surrey Hills (West) - Canterbury,Anderson Street,anderson street,surrey hills (west) - canterbury
Surrey Hills (West) - Canterbury,Angle Road,angle road,surrey hills (west) - canterbury
Surrey Hills (West) - Canterbury,Anniversary Trail,anniversary trail,surrey hills (west) - canterbury
Surrey Hills (West) - Canterbury,Arundel Crescent,arundel crescent,surrey hills (west) - canterbury
Surrey Hills (West) - Canterbury,Athol Place,athol place,surrey hills (west) - canterbury
Surrey Hills (West) - Canterbury,Austral Street,austral street,surrey hills (west) - canterbury
Surrey Hills (West) - Canterbury,Avenue Athol,avenue athol,surrey hills (west) - canterbury
Surrey Hills (West) - Canterbury,Back Creek Trail,back creek trail,surrey hills (west) - canterbury
Surrey Hills (West) - Canterbury,Back Creek Trail Extention,back creek trail extention,surrey hills (west) - canterbury
Surrey Hills (West) - Canterbury,Balwyn Road,balwyn road,surrey hills (west) - canterbury
Surrey Hills (West) - Canterbury,Banool Road,banool road,surrey hills (west) - canterbury
Surrey Hills (West) - Canterbury,Barnsbury Road,barnsbury road,surrey hills (west) - canterbury
Surrey Hills (West) - Canterbury,Beaumont Street,beaumont street,surrey hills (west) - canterbury
Surrey Hills (West) - Canterbury,Benson Street,benson street,surrey hills (west) - canterbury
Surrey Hills (West) - Canterbury,Big Bridge,big bridge,surrey hills (west) - canterbury
Surrey Hills (West) - Canterbury,Bona Vista Avenue,bona vista avenue,surrey hills (west) - canterbury
Surrey Hills (West) - Canterbury,Bonner Street,bonner street,surrey hills (west) - canterbury
Surrey Hills (West) - Canterbury,Boronia Street,boronia street,surrey hills (west) - canterbury
Surrey Hills (West) - Canterbury,Boston Road,boston road,surrey hills (west) - canterbury
Surrey Hills (West) - Canterbury,Bristol Street,bristol street,surrey hills (west) - canterbury
Surrey Hills (West) - Canterbury,Bryson Street,bryson street,surrey hills (west) - canterbury
Surrey Hills (West) - Canterbury,Burnside Avenue,burnside avenue,surrey hills (west) - canterbury
Surrey Hills (West) - Canterbury,Byron Street,byron street,surrey hills (west) - canterbury
Surrey Hills (West) - Canterbury,Campbell Road,campbell road,surrey hills (west) - canterbury
Surrey Hills (West) - Canterbury,Canterbury Road,canterbury road,surrey hills (west) - canterbury
Surrey Hills (West) - Canterbury,Carinda Road,carinda road,surrey hills (west) - canterbury
Surrey Hills (West) - Canterbury,Carronshore Close,carronshore close,surrey hills (west) - canterbury
Surrey Hills (West) - Canterbury,Catherine Street,catherine street,surrey hills (west) - canterbury
Surrey Hills (West) - Canterbury,Chatham Road,chatham road,surrey hills (west) - canterbury
Surrey Hills (West) - Canterbury,Chaucer Crescent,chaucer crescent,surrey hills (west) - canterbury
Surrey Hills (West) - Canterbury,Chertsey Street,chertsey street,surrey hills (west) - canterbury
Surrey Hills (West) - Canterbury,Chesterton Place,chesterton place,surrey hills (west) - canterbury
Surrey Hills (West) - Canterbury,Church Street,church street,surrey hills (west) - canterbury
Surrey Hills (West) - Canterbury,Clapham Street,clapham street,surrey hills (west) - canterbury
Surrey Hills (West) - Canterbury,Claremont Crescent,claremont crescent,surrey hills (west) - canterbury
Surrey Hills (West) - Canterbury,Clyde Street,clyde street,surrey hills (west) - canterbury
Surrey Hills (West) - Canterbury,Como Avenue,como avenue,surrey hills (west) - canterbury
Surrey Hills (West) - Canterbury,Compton Street,compton street,surrey hills (west) - canterbury
Surrey Hills (West) - Canterbury,Cooba Street,cooba street,surrey hills (west) - canterbury
Surrey Hills (West) - Canterbury,Cross Street,cross street,surrey hills (west) - canterbury
Surrey Hills (West) - Canterbury,Croydon Road,croydon road,surrey hills (west) - canterbury
Surrey Hills (West) - Canterbury,Daphne Street,daphne street,surrey hills (west) - canterbury
Surrey Hills (West) - Canterbury,David Street,david street,surrey hills (west) - canterbury
Surrey Hills (West) - Canterbury,Deepdene Road,deepdene road,surrey hills (west) - canterbury
Surrey Hills (West) - Canterbury,Delany Close,delany close,surrey hills (west) - canterbury
Surrey Hills (West) - Canterbury,Delta Street,delta street,surrey hills (west) - canterbury
Surrey Hills (West) - Canterbury,Delta Street connection,delta street connection,surrey hills (west) - canterbury
Surrey Hills (West) - Canterbury,Dome Street,dome street,surrey hills (west) - canterbury
Surrey Hills (West) - Canterbury,Dorothea Street,dorothea street,surrey hills (west) - canterbury
Surrey Hills (West) - Canterbury,Dryden Street,dryden street,surrey hills (west) - canterbury
Surrey Hills (West) - Canterbury,Dudley Parade,dudley parade,surrey hills (west) - canterbury
Surrey Hills (West) - Canterbury,Durham Road,durham road,surrey hills (west) - canterbury
Surrey Hills (West) - Canterbury,Elphin Grove,elphin grove,surrey hills (west) - canterbury
Surrey Hills (West) - Canterbury,Empress Road,empress road,surrey hills (west) - canterbury
Surrey Hills (West) - Canterbury,Erica Street,erica street,surrey hills (west) - canterbury
Surrey Hills (West) - Canterbury,Essex Road,essex road,surrey hills (west) - canterbury
Surrey Hills (West) - Canterbury,Faversham Road,faversham road,surrey hills (west) - canterbury
Surrey Hills (West) - Canterbury,Felix Street,felix street,surrey hills (west) - canterbury
Surrey Hills (West) - Canterbury,Flinders Avenue,flinders avenue,surrey hills (west) - canterbury
Surrey Hills (West) - Canterbury,Frimley Road,frimley road,surrey hills (west) - canterbury
Surrey Hills (West) - Canterbury,Frognall Place,frognall place,surrey hills (west) - canterbury
Surrey Hills (West) - Canterbury,Gascoyne Street,gascoyne street,surrey hills (west) - canterbury
Surrey Hills (West) - Canterbury,Golding Street,golding street,surrey hills (west) - canterbury
Surrey Hills (West) - Canterbury,Graham Street,graham street,surrey hills (west) - canterbury
Surrey Hills (West) - Canterbury,Grange Avenue,grange avenue,surrey hills (west) - canterbury
Surrey Hills (West) - Canterbury,Griotte Street,griotte street,surrey hills (west) - canterbury
Surrey Hills (West) - Canterbury,Grovedale Road,grovedale road,surrey hills (west) - canterbury
Surrey Hills (West) - Canterbury,Guildford Road,guildford road,surrey hills (west) - canterbury
Surrey Hills (West) - Canterbury,Gwenda Avenue,gwenda avenue,surrey hills (west) - canterbury
Surrey Hills (West) - Canterbury,Hassett Avenue,hassett avenue,surrey hills (west) - canterbury
Surrey Hills (West) - Canterbury,Highfield Road,highfield road,surrey hills (west) - canterbury
Surrey Hills (West) - Canterbury,Hocknell Street,hocknell street,surrey hills (west) - canterbury
Surrey Hills (West) - Canterbury,Hopetoun Avenue,hopetoun avenue,surrey hills (west) - canterbury
Surrey Hills (West) - Canterbury,Irilbarra Road,irilbarra road,surrey hills (west) - canterbury
Surrey Hills (West) - Canterbury,James Street,james street,surrey hills (west) - canterbury
Surrey Hills (West) - Canterbury,Jocelyn Street,jocelyn street,surrey hills (west) - canterbury
Surrey Hills (West) - Canterbury,Junction Road,junction road,surrey hills (west) - canterbury
Surrey Hills (West) - Canterbury,Keats Street,keats street,surrey hills (west) - canterbury
Surrey Hills (West) - Canterbury,Kendall Street,kendall street,surrey hills (west) - canterbury
Surrey Hills (West) - Canterbury,Kennealy Street,kennealy street,surrey hills (west) - canterbury
Surrey Hills (West) - Canterbury,Kent Road,kent road,surrey hills (west) - canterbury
Surrey Hills (West) - Canterbury,Kingston Road,kingston road,surrey hills (west) - canterbury
Surrey Hills (West) - Canterbury,Kireep Road,kireep road,surrey hills (west) - canterbury
Surrey Hills (West) - Canterbury,Knox Street,knox street,surrey hills (west) - canterbury
Surrey Hills (West) - Canterbury,Knutsford Street,knutsford street,surrey hills (west) - canterbury
Surrey Hills (West) - Canterbury,Langford Street,langford street,surrey hills (west) - canterbury
Surrey Hills (West) - Canterbury,Leeds Street,leeds street,surrey hills (west) - canterbury
Surrey Hills (West) - Canterbury,Leura Street,leura street,surrey hills (west) - canterbury
Surrey Hills (West) - Canterbury,Lille Street,lille street,surrey hills (west) - canterbury
Surrey Hills (West) - Canterbury,Logan Street,logan street,surrey hills (west) - canterbury
Surrey Hills (West) - Canterbury,Malacca Road,malacca road,surrey hills (west) - canterbury
Surrey Hills (West) - Canterbury,Maling Road,maling road,surrey hills (west) - canterbury
Surrey Hills (West) - Canterbury,Mangarra Road,mangarra road,surrey hills (west) - canterbury
Surrey Hills (West) - Canterbury,Marden Street,marden street,surrey hills (west) - canterbury
Surrey Hills (West) - Canterbury,Margaret Street,margaret street,surrey hills (west) - canterbury
Surrey Hills (West) - Canterbury,Marlowe Street,marlowe street,surrey hills (west) - canterbury
Surrey Hills (West) - Canterbury,Marne Street,marne street,surrey hills (west) - canterbury
Surrey Hills (West) - Canterbury,Mathilde Road,mathilde road,surrey hills (west) - canterbury
Surrey Hills (West) - Canterbury,Matlock Street,matlock street,surrey hills (west) - canterbury
Surrey Hills (West) - Canterbury,Maysia Street,maysia street,surrey hills (west) - canterbury
Surrey Hills (West) - Canterbury,McGregor Street,mcgregor street,surrey hills (west) - canterbury
Surrey Hills (West) - Canterbury,Meldreth Street,meldreth street,surrey hills (west) - canterbury
Surrey Hills (West) - Canterbury,Middlesex Road,middlesex road,surrey hills (west) - canterbury
Surrey Hills (West) - Canterbury,Milton Street,milton street,surrey hills (west) - canterbury
Surrey Hills (West) - Canterbury,Molesworth Street,molesworth street,surrey hills (west) - canterbury
Surrey Hills (West) - Canterbury,Monomeath Avenue,monomeath avenue,surrey hills (west) - canterbury
Surrey Hills (West) - Canterbury,Monomeath Place,monomeath place,surrey hills (west) - canterbury
Surrey Hills (West) - Canterbury,Mont Albert Road,mont albert road,surrey hills (west) - canterbury
Surrey Hills (West) - Canterbury,Moresby Street,moresby street,surrey hills (west) - canterbury
Surrey Hills (West) - Canterbury,Mountfield Street,mountfield street,surrey hills (west) - canterbury
Surrey Hills (West) - Canterbury,Myrtle Road,myrtle road,surrey hills (west) - canterbury
Surrey Hills (West) - Canterbury,Narrak Road,narrak road,surrey hills (west) - canterbury
Surrey Hills (West) - Canterbury,Neath Street,neath street,surrey hills (west) - canterbury
Surrey Hills (West) - Canterbury,Norfolk Road,norfolk road,surrey hills (west) - canterbury
Surrey Hills (West) - Canterbury,Norris Street,norris street,surrey hills (west) - canterbury
Surrey Hills (West) - Canterbury,North Court,north court,surrey hills (west) - canterbury
Surrey Hills (West) - Canterbury,Northcote Avenue,northcote avenue,surrey hills (west) - canterbury
Surrey Hills (West) - Canterbury,Oak Street,oak street,surrey hills (west) - canterbury
Surrey Hills (West) - Canterbury,Oakdale Avenue,oakdale avenue,surrey hills (west) - canterbury
Surrey Hills (West) - Canterbury,Parlington Street,parlington street,surrey hills (west) - canterbury
Surrey Hills (West) - Canterbury,Parring Road,parring road,surrey hills (west) - canterbury
Surrey Hills (West) - Canterbury,Payne Street,payne street,surrey hills (west) - canterbury
Surrey Hills (West) - Canterbury,Pin Oak Court,pin oak court,surrey hills (west) - canterbury
Surrey Hills (West) - Canterbury,Pinoak Court,pinoak court,surrey hills (west) - canterbury
Surrey Hills (West) - Canterbury,Prospect Hill Road,prospect hill road,surrey hills (west) - canterbury
Surrey Hills (West) - Canterbury,Quantock Street,quantock street,surrey hills (west) - canterbury
Surrey Hills (West) - Canterbury,Queen Street,queen street,surrey hills (west) - canterbury
Surrey Hills (West) - Canterbury,Railway Place,railway place,surrey hills (west) - canterbury
Surrey Hills (West) - Canterbury,Rawlings Street,rawlings street,surrey hills (west) - canterbury
Surrey Hills (West) - Canterbury,Redvers Street,redvers street,surrey hills (west) - canterbury
Surrey Hills (West) - Canterbury,Reeve Lane,reeve lane,surrey hills (west) - canterbury
Surrey Hills (West) - Canterbury,Robinson Road,robinson road,surrey hills (west) - canterbury
Surrey Hills (West) - Canterbury,Rochester Road,rochester road,surrey hills (west) - canterbury
Surrey Hills (West) - Canterbury,Rose Avenue,rose avenue,surrey hills (west) - canterbury
Surrey Hills (West) - Canterbury,Ross Street,ross street,surrey hills (west) - canterbury
Surrey Hills (West) - Canterbury,Rubens Grove,rubens grove,surrey hills (west) - canterbury
Surrey Hills (West) - Canterbury,Salisbury Street,salisbury street,surrey hills (west) - canterbury
Surrey Hills (West) - Canterbury,Scheele Street,scheele street,surrey hills (west) - canterbury
Surrey Hills (West) - Canterbury,Scott Street,scott street,surrey hills (west) - canterbury
Surrey Hills (West) - Canterbury,Selwyn Street,selwyn street,surrey hills (west) - canterbury
Surrey Hills (West) - Canterbury,Shepreth Street,shepreth street,surrey hills (west) - canterbury
Surrey Hills (West) - Canterbury,Shierlaw Avenue,shierlaw avenue,surrey hills (west) - canterbury
Surrey Hills (West) - Canterbury,Short Street,short street,surrey hills (west) - canterbury
Surrey Hills (West) - Canterbury,Shrublands Court,shrublands court,surrey hills (west) - canterbury
Surrey Hills (West) - Canterbury,Sir Garnet Road,sir garnet road,surrey hills (west) - canterbury
Surrey Hills (West) - Canterbury,Snowden Place,snowden place,surrey hills (west) - canterbury
Surrey Hills (West) - Canterbury,South Court,south court,surrey hills (west) - canterbury
Surrey Hills (West) - Canterbury,Stanley Grove,stanley grove,surrey hills (west) - canterbury
Surrey Hills (West) - Canterbury,Stanley Terrace,stanley terrace,surrey hills (west) - canterbury
Surrey Hills (West) - Canterbury,Stirling Crescent,stirling crescent,surrey hills (west) - canterbury
Surrey Hills (West) - Canterbury,Suffolk Road,suffolk road,surrey hills (west) - canterbury
Surrey Hills (West) - Canterbury,Sunbury Crescent,sunbury crescent,surrey hills (west) - canterbury
Surrey Hills (West) - Canterbury,Surrey Avenue,surrey avenue,surrey hills (west) - canterbury
Surrey Hills (West) - Canterbury,Sythney Court,sythney court,surrey hills (west) - canterbury
Surrey Hills (West) - Canterbury,Talbot Avenue,talbot avenue,surrey hills (west) - canterbury
Surrey Hills (West) - Canterbury,Thames Street,thames street,surrey hills (west) - canterbury
Surrey Hills (West) - Canterbury,The Avenue,the avenue,surrey hills (west) - canterbury
Surrey Hills (West) - Canterbury,The Ridge,the ridge,surrey hills (west) - canterbury
Surrey Hills (West) - Canterbury,Theatre Place,theatre place,surrey hills (west) - canterbury
Surrey Hills (West) - Canterbury,Thistle Street,thistle street,surrey hills (west) - canterbury
Surrey Hills (West) - Canterbury,Thornton Avenue,thornton avenue,surrey hills (west) - canterbury
Surrey Hills (West) - Canterbury,Torrington Place,torrington place,surrey hills (west) - canterbury
Surrey Hills (West) - Canterbury,Torrington Street,torrington street,surrey hills (west) - canterbury
Surrey Hills (West) - Canterbury,Tyndall Street,tyndall street,surrey hills (west) - canterbury
Surrey Hills (West) - Canterbury,Union Road,union road,surrey hills (west) - canterbury
Surrey Hills (West) - Canterbury,Varzin Avenue,varzin avenue,surrey hills (west) - canterbury
Surrey Hills (West) - Canterbury,Vaughan Avenue,vaughan avenue,surrey hills (west) - canterbury
Surrey Hills (West) - Canterbury,Verdun Street,verdun street,surrey hills (west) - canterbury
Surrey Hills (West) - Canterbury,Victoria Avenue,victoria avenue,surrey hills (west) - canterbury
Surrey Hills (West) - Canterbury,View Street,view street,surrey hills (west) - canterbury
Surrey Hills (West) - Canterbury,Vincent Street,vincent street,surrey hills (west) - canterbury
Surrey Hills (West) - Canterbury,Wandsworth Road,wandsworth road,surrey hills (west) - canterbury
Surrey Hills (West) - Canterbury,Warburton Road,warburton road,surrey hills (west) - canterbury
Surrey Hills (West) - Canterbury,Warrigal Road,warrigal road,surrey hills (west) - canterbury
Surrey Hills (West) - Canterbury,Warwick Avenue,warwick avenue,surrey hills (west) - canterbury
Surrey Hills (West) - Canterbury,Warwick Court,warwick court,surrey hills (west) - canterbury
Surrey Hills (West) - Canterbury,Wattle Valley Road,wattle valley road,surrey hills (west) - canterbury
Surrey Hills (West) - Canterbury,Wells Street,wells street,surrey hills (west) - canterbury
Surrey Hills (West) - Canterbury,Wentworth Avenue,wentworth avenue,surrey hills (west) - canterbury
Surrey Hills (West) - Canterbury,West Road,west road,surrey hills (west) - canterbury
Surrey Hills (West) - Canterbury,Westminster Street,westminster street,surrey hills (west) - canterbury
Surrey Hills (West) - Canterbury,Weybridge Street,weybridge street,surrey hills (west) - canterbury
Surrey Hills (West) - Canterbury,Wharton Street,wharton street,surrey hills (west) - canterbury
Surrey Hills (West) - Canterbury,Whitehorse Road,whitehorse road,surrey hills (west) - canterbury
Surrey Hills (West) - Canterbury,Willandra Avenue,willandra avenue,surrey hills (west) - canterbury
Surrey Hills (West) - Canterbury,Willow Grove,willow grove,surrey hills (west) - canterbury
Surrey Hills (West) - Canterbury,Winson Green Road,winson green road,surrey hills (west) - canterbury
Surrey Hills (West) - Canterbury,Woodstock Street,woodstock street,surrey hills (west) - canterbury
Surrey Hills (West) - Canterbury,York Lane,york lane,surrey hills (west) - canterbury
Toorak,Albany Road,albany road,toorak
Toorak,Alexandra Avenue,alexandra avenue,toorak
Toorak,Ashe Grove,ashe grove,toorak
Toorak,Balfour Street,balfour street,toorak
Toorak,Balmerino Avenue,balmerino avenue,toorak
Toorak,Barnard Road,barnard road,toorak
Toorak,Baxter Street,baxter street,toorak
Toorak,Bellaire Court,bellaire court,toorak
Toorak,Benson Avenue,benson avenue,toorak
Toorak,Berenice Terrace,berenice terrace,toorak
Toorak,Blackfriars Close,blackfriars close,toorak
Toorak,Boandyne Court,boandyne court,toorak
Toorak,Bromley Court,bromley court,toorak
Toorak,Brookville Road,brookville road,toorak
Toorak,Bruce Street,bruce street,toorak
Toorak,Buddle Drive,buddle drive,toorak
Toorak,Burnie Street,burnie street,toorak
Toorak,Canberra Road,canberra road,toorak
Toorak,Canterbury Road,canterbury road,toorak
Toorak,Carmyle Avenue,carmyle avenue,toorak
Toorak,Carters Avenue,carters avenue,toorak
Toorak,Chastleton Avenue,chastleton avenue,toorak
Toorak,Church Street,church street,toorak
Toorak,CityLink,citylink,toorak
Toorak,Cleeve Court,cleeve court,toorak
Toorak,Clendon Court,clendon court,toorak
Toorak,Clendon Road,clendon road,toorak
Toorak,Cloverdale Avenue,cloverdale avenue,toorak
Toorak,Cole Court,cole court,toorak
Toorak,Crestmont Court,crestmont court,toorak
Toorak,Cross Street,cross street,toorak
Toorak,Culshaw Street,culshaw street,toorak
Toorak,Dalriada Street,dalriada street,toorak
Toorak,Denham Place,denham place,toorak
Toorak,Devorgilla Avenue,devorgilla avenue,toorak
Toorak,Douglas Street,douglas street,toorak
Toorak,Duffryn Place,duffryn place,toorak
Toorak,Dunraven Avenue,dunraven avenue,toorak
Toorak,Eden Court,eden court,toorak
Toorak,Edward Street,edward street,toorak
Toorak,Edzell Avenue,edzell avenue,toorak
Toorak,Eldene Court,eldene court,toorak
Toorak,Ellerslie Place,ellerslie place,toorak
Toorak,Ellerslie Place East,ellerslie place east,toorak
Toorak,Evans Court,evans court,toorak
Toorak,Evelina Road,evelina road,toorak
Toorak,Fairbairn Road,fairbairn road,toorak
Toorak,Flintoft Avenue,flintoft avenue,toorak
Toorak,Forrest Court,forrest court,toorak
Toorak,Furnell Court,furnell court,toorak
Toorak,Gahan Court,gahan court,toorak
Toorak,Gardiners Creek Trail,gardiners creek trail,toorak
Toorak,Gawith Court,gawith court,toorak
Toorak,Glen Road,glen road,toorak
Toorak,Glenbervie Road,glenbervie road,toorak
Toorak,Glendye Court,glendye court,toorak
Toorak,Glenferrie Road,glenferrie road,toorak
Toorak,Glover Court,glover court,toorak
Toorak,Glyndebourne Avenue,glyndebourne avenue,toorak
Toorak,Gordon Street,gordon street,toorak
Toorak,Grange Road,grange road,toorak
Toorak,Grant Avenue,grant avenue,toorak
Toorak,Greenknowe Court,greenknowe court,toorak
Toorak,Grong Grong Court,grong grong court,toorak
Toorak,Grosvenor Court,grosvenor court,toorak
Toorak,Hamilton Road,hamilton road,toorak
Toorak,Henry's Walk,henry's walk,toorak
Toorak,Heyington Place,heyington place,toorak
Toorak,Heymount Close,heymount close,toorak
Toorak,Highgate Hill,highgate hill,toorak
Toorak,Hill Street,hill street,toorak
Toorak,Hopetoun Road,hopetoun road,toorak
Toorak,Huntingfield Road,huntingfield road,toorak
Toorak,Illawarra Crescent,illawarra crescent,toorak
Toorak,Iona Avenue,iona avenue,toorak
Toorak,Irving Road,irving road,toorak
Toorak,Jackson Street,jackson street,toorak
Toorak,Kenley Court,kenley court,toorak
Toorak,Kent Court,kent court,toorak
Toorak,Kilsyth Avenue,kilsyth avenue,toorak
Toorak,Kingsley Court,kingsley court,toorak
Toorak,Kooyong Road,kooyong road,toorak
Toorak,Kyeamba Grove,kyeamba grove,toorak
Toorak,Lambert Road,lambert road,toorak
Toorak,Lamin Lane,lamin lane,toorak
Toorak,Landale Road,landale road,toorak
Toorak,Landen Place,landen place,toorak
Toorak,Lansell Court,lansell court,toorak
Toorak,Lansell Road,lansell road,toorak
Toorak,Lascelles Avenue,lascelles avenue,toorak
Toorak,Lawrenny Court,lawrenny court,toorak
Toorak,Ledbury Court,ledbury court,toorak
Toorak,Leicester Square,leicester square,toorak
Toorak,Leighton Court,leighton court,toorak
Toorak,Linlithgow Road,linlithgow road,toorak
Toorak,Lisbuoy Court,lisbuoy court,toorak
Toorak,Lunn Lane,lunn lane,toorak
Toorak,Macquarie Road,macquarie road,toorak
Toorak,Main Drive,main drive,toorak
Toorak,Main Yarra Trail,main yarra trail,toorak
Toorak,Malvern Road,malvern road,toorak
Toorak,Mandeville Crescent,mandeville crescent,toorak
Toorak,Mandeville Lane,mandeville lane,toorak
Toorak,Maple Grove,maple grove,toorak
Toorak,Martin Court,martin court,toorak
Toorak,Mathoura Road,mathoura road,toorak
Toorak,Matthews Court,matthews court,toorak
Toorak,Maxwell Court,maxwell court,toorak
Toorak,May Road,may road,toorak
Toorak,McMaster Court,mcmaster court,toorak
Toorak,Mell Street,mell street,toorak
Toorak,Merriwee Crescent,merriwee crescent,toorak
Toorak,Millicent Avenue,millicent avenue,toorak
Toorak,Monomeath Avenue,monomeath avenue,toorak
Toorak,Montalto Avenue,montalto avenue,toorak
Toorak,Montrose Court,montrose court,toorak
Toorak,Moonga Road,moonga road,toorak
Toorak,Moorakyne Avenue,moorakyne avenue,toorak
Toorak,Myoora Road,myoora road,toorak
Toorak,Myrnong Crescent,myrnong crescent,toorak
Toorak,Myvore Court,myvore court,toorak
Toorak,Nareeb Court,nareeb court,toorak
Toorak,Nola Court,nola court,toorak
Toorak,Ormsby Grove,ormsby grove,toorak
Toorak,Orrong Road,orrong road,toorak
Toorak,Ottawa Road,ottawa road,toorak
Toorak,Power Avenue,power avenue,toorak
Toorak,Power Street,power street,toorak
Toorak,Rathmines Street,rathmines street,toorak
Toorak,Robertson Street,robertson street,toorak
Toorak,Ross Street,ross street,toorak
Toorak,Rostill Court,rostill court,toorak
Toorak,Ruabon Road,ruabon road,toorak
Toorak,Russell Street,russell street,toorak
Toorak,Saint Georges Court,saint georges court,toorak
Toorak,Sams Way,sams way,toorak
Toorak,Sargood Street,sargood street,toorak
Toorak,Scotsburn Grove,scotsburn grove,toorak
Toorak,Selborne Road,selborne road,toorak
Toorak,Selwyn Court,selwyn court,toorak
Toorak,Smyth Street,smyth street,toorak
Toorak,Somers Avenue,somers avenue,toorak
Toorak,Springfield Avenue,springfield avenue,toorak
Toorak,St Catherines Lane,st catherines lane,toorak
Toorak,St Georges Road,st georges road,toorak
Toorak,St James Place,st james place,toorak
Toorak,St Johns Lane,st johns lane,toorak
Toorak,Stonehaven Court,stonehaven court,toorak
Toorak,Stonnington Place,stonnington place,toorak
Toorak,Stradbroke Avenue,stradbroke avenue,toorak
Toorak,Struan Street,struan street,toorak
Toorak,Tahara Road,tahara road,toorak
Toorak,Tashinny Road,tashinny road,toorak
Toorak,Teringa Place,teringa place,toorak
Toorak,Tevendale Lane,tevendale lane,toorak
Toorak,The Lane,the lane,toorak
Toorak,Theodore Court,theodore court,toorak
Toorak,Tintern Avenue,tintern avenue,toorak
Toorak,Toorak Avenue,toorak avenue,toorak
Toorak,Toorak Road,toorak road,toorak
Toorak,Torresdale Court,torresdale court,toorak
Toorak,Torresdale Road,torresdale road,toorak
Toorak,Towers Lane,towers lane,toorak
Toorak,Towers Road,towers road,toorak
Toorak,Trawalla Avenue,trawalla avenue,toorak
Toorak,Turnbull Avenue,turnbull avenue,toorak
Toorak,Tyalla Crescent,tyalla crescent,toorak
Toorak,Ultimo Court,ultimo court,toorak
Toorak,Verdant Avenue,verdant avenue,toorak
Toorak,Village Walk,village walk,toorak
Toorak,Village Way,village way,toorak
Toorak,Vista Grove,vista grove,toorak
Toorak,Wallace Avenue,wallace avenue,toorak
Toorak,Wannon Court,wannon court,toorak
Toorak,Warra Street,warra street,toorak
Toorak,Washington Street,washington street,toorak
Toorak,Whernside Avenue,whernside avenue,toorak
Toorak,Williams Road,williams road,toorak
Toorak,Winifred Crescent,winifred crescent,toorak
Toorak,Woodmason Street,woodmason street,toorak
Toorak,Woodside Crescent,woodside crescent,toorak
Toorak,Woorigoleen Road,woorigoleen road,toorak
Toorak,Yar Orrong Road,yar orrong road,toorak
Toorak,Yarradale Road,yarradale road,toorak
